{"type": "FeatureCollection", "features": [{"type": "Feature", "geometry": {"type": "Point", "coordinates": [-121.26181, 40.94913]}, "properties": {"Name": "3-1 Pit Fire", "AcresBurned": 1055.0, "PercentContained": 99.0, "County": "Lassen", "Location": "Little Valley Road & Wilson Springs Road, Southeast of McArthur", "Started": "2026-07-07T20:35:02Z", "Updated": "2026-08-03T03:58:24Z", "IsActive": true, "Url": "https://www.fire.ca.gov/incidents/2026/7/7/3-1-pit-fire/", "AdminUnit": "CAL FIRE Lassen-Modoc Unit", "Final": false}}, {"type": "Feature", "geometry": {"type": "Point", "coordinates": [-121.15477, 40.966139]}, "properties": {"Name": "Loomis Fire", "AcresBurned": 656.0, "PercentContained": 99.0, "County": "Lassen", "Location": "Dixie Valley, CA", "Started": "2026-07-12T06:47:57Z", "Updated": "2026-08-03T04:00:10Z", "IsActive": true, "Url": "https://www.fire.ca.gov/incidents/2026/7/11/loomis-fire/", "AdminUnit": "CAL FIRE Lassen-Modoc Unit", "Final": false}}, {"type": "Feature", "geometry": {"type": "Point", "coordinates": [-121.15087, 39.350013]}, "properties": {"Name": "Chute Fire", "AcresBurned": 163.0, "PercentContained": 95.0, "County": "Yuba", "Location": "Chute Ravine near Dobbins, Yuba County", "Started": "2026-07-13T15:20:13Z", "Updated": "2026-08-03T01:36:28Z", "IsActive": true, "Url": "https://www.fire.ca.gov/incidents/2026/7/13/chute-fire/", "AdminUnit": "CAL FIRE Nevada-Yuba-Placer Unit", "Final": false}}, {"type": "Feature", "geometry": {"type": "Point", "coordinates": [-118.24765, 36.97819]}, "properties": {"Name": "Rock Fire", "AcresBurned": 12008.0, "PercentContained": 98.0, "County": "Inyo", "Location": "Black Rock Springs Road and Hwy 395, Poverty Hills", "Started": "2026-07-20T23:50:53Z", "Updated": "2026-08-04T22:22:13Z", "IsActive": true, "Url": "https://www.fire.ca.gov/incidents/2026/7/20/rock-fire/", "AdminUnit": "Inyo National Forest", "Final": false}}, {"type": "Feature", "geometry": {"type": "Point", "coordinates": [-118.271105, 37.015916]}, "properties": {"Name": "Cinder Complex", "AcresBurned": 2784.0, "PercentContained": 88.0, "County": "Inyo", "Location": "Tinnemaha Road and Taboose Creek Road, North of Aberdeen", "Started": "2026-07-25T00:15:00Z", "Updated": "2026-08-04T05:23:41Z", "IsActive": true, "Url": "https://www.fire.ca.gov/incidents/2026/7/24/cinder-complex/", "AdminUnit": "CAL FIRE San Bernardino, Inyo, Mono Unit ", "Final": false}}, {"type": "Feature", "geometry": {"type": "Point", "coordinates": [-121.486808, 37.403374]}, "properties": {"Name": "Mines Fire", "AcresBurned": 282.0, "PercentContained": 95.0, "County": "Santa Clara", "Location": "Mines Road and San Antonio Valley Road, San Antone Valley", "Started": "2026-07-26T21:08:31Z", "Updated": "2026-08-04T22:04:15Z", "IsActive": true, "Url": "https://www.fire.ca.gov/incidents/2026/7/26/mines-fire/", "AdminUnit": "CAL FIRE Santa Clara Unit", "Final": false}}, {"type": "Feature", "geometry": {"type": "Point", "coordinates": [-117.02468, 34.0991454]}, "properties": {"Name": "Green Fire", "AcresBurned": 55.0, "PercentContained": 83.0, "County": "San Bernardino", "Location": "Thurman Flats Picnic Area, Mountain Home Village", "Started": "2026-07-28T00:42:30Z", "Updated": "2026-08-03T14:21:11Z", "IsActive": true, "Url": "https://www.fire.ca.gov/incidents/2026/7/27/green-fire/", "AdminUnit": "Unified Command: CAL FIRE, United States Forest Service -  San Bernardino National Forest", "Final": false}}, {"type": "Feature", "geometry": {"type": "Point", "coordinates": [-123.32409, 38.56686]}, "properties": {"Name": "Woodside Fire", "AcresBurned": 152.0, "PercentContained": 70.0, "County": "Sonoma", "Location": "Highway 1, Timber Cove", "Started": "2026-07-30T20:43:26Z", "Updated": "2026-08-04T22:36:54Z", "IsActive": true, "Url": "https://www.fire.ca.gov/incidents/2026/7/30/woodside-fire/", "AdminUnit": "CAL FIRE Sonoma-Lake-Napa Unit", "Final": false}}, {"type": "Feature", "geometry": {"type": "Point", "coordinates": [-116.76336, 33.26417]}, "properties": {"Name": "Grade Fire", "AcresBurned": 689.0, "PercentContained": 100.0, "County": "San Diego", "Location": "East Grade Road, Northwest of Lake Henshaw", "Started": "2026-07-31T21:13:07Z", "Updated": "2026-08-04T14:15:15Z", "IsActive": true, "Url": "https://www.fire.ca.gov/incidents/2026/7/31/grade-fire/", "AdminUnit": "Unified Command: CAL FIRE San Diego Unit and USFS", "Final": false}}, {"type": "Feature", "geometry": {"type": "Point", "coordinates": [-123.1611477, 38.99225]}, "properties": {"Name": "Feliz Fire", "AcresBurned": 872.0, "PercentContained": 60.0, "County": "Mendocino", "Location": "Feliz Creek Road, Hopland  ", "Started": "2026-08-01T22:39:08Z", "Updated": "2026-08-04T22:36:50Z", "IsActive": true, "Url": "https://www.fire.ca.gov/incidents/2026/8/1/feliz-fire/", "AdminUnit": "CAL FIRE Mendocino Unit", "Final": false}}, {"type": "Feature", "geometry": {"type": "Point", "coordinates": [-120.766337, 38.107826]}, "properties": {"Name": "Gann Fire", "AcresBurned": 3759.9, "PercentContained": null, "County": "Calaveras", "Location": "Hogan Dam Road and Gann Road, Valley Springs", "Started": "2026-08-04T00:27:56Z", "Updated": "2026-08-04T23:15:45Z", "IsActive": true, "Url": "https://www.fire.ca.gov/incidents/2026/8/3/gann-fire/", "AdminUnit": "Unified Command: CAL FIRE Tuolumne-Calaveras Unit, Calaveras County Sheriff\u2019s Office", "Final": false}}, {"type": "Feature", "geometry": {"type": "Point", "coordinates": [-122.07, 40.313]}, "properties": {"Name": "Manton Fire", "AcresBurned": 41.3, "PercentContained": 25.0, "County": "Tehama", "Location": "Manton Road and Highway 36 East, Dales", "Started": "2026-08-04T02:08:20Z", "Updated": "2026-08-04T19:26:29Z", "IsActive": true, "Url": "https://www.fire.ca.gov/incidents/2026/8/3/manton-fire/", "AdminUnit": "CAL FIRE Tehama-Glenn Unit", "Final": false}}, {"type": "Feature", "geometry": {"type": "Point", "coordinates": [-118.03026, 34.50622]}, "properties": {"Name": "Haskett Fire ", "AcresBurned": 35.0, "PercentContained": null, "County": "Los Angeles", "Location": "Cheseboro Road and Mount Emma Road, Little Rock ", "Started": "2026-08-04T20:28:42Z", "Updated": "2026-08-04T20:42:28Z", "IsActive": true, "Url": "https://www.fire.ca.gov/incidents/2026/8/4/haskett-fire/", "AdminUnit": "Los Angeles County Fire Department", "Final": false}}, {"type": "Feature", "geometry": {"type": "Point", "coordinates": [-121.667682, 37.865199]}, "properties": {"Name": "Camino Fire", "AcresBurned": 10.9, "PercentContained": null, "County": "Contra Costa", "Location": "Unknown / TBD", "Started": "2026-08-04T21:51:44Z", "Updated": "2026-08-04T23:17:34Z", "IsActive": true, "Url": "https://www.fire.ca.gov/incidents/2026/8/4/camino-fire/", "AdminUnit": "CAL FIRE Santa Clara Unit", "Final": false}}, {"type": "Feature", "geometry": {"type": "Point", "coordinates": [-118.603333, 35.258333]}, "properties": {"Name": "Cassie Fire", "AcresBurned": 144.0, "PercentContained": null, "County": "Kern", "Location": "Unknown / TBD", "Started": "2026-08-04T21:35:00Z", "Updated": "2026-08-04T23:24:15Z", "IsActive": true, "Url": "https://www.fire.ca.gov/incidents/2026/8/4/cassie-fire/", "AdminUnit": "Kern County Fire Department", "Final": false}}]}