{"type": "FeatureCollection", "crs": {"type": "name", "properties": {"name": "EPSG:4326"}}, "features": [{"type": "Feature", "geometry": {"type": "Point", "coordinates": [-117.487667, 33.4624440000001]}, "properties": {"IncidentName": "MATEO", "PercentContained": 100, "FireDiscoveryDateTime": 1781556776000, "POOCounty": "San Diego", "IrwinID": "6520b94e-7cc5-404e-888c-8afbb5bb31f9", "FireOutDateTime": null, "IncidentSize": 1335, "POOProtectingAgency": null, "_has_perimeter": false}}, {"type": "Feature", "geometry": {"type": "Point", "coordinates": [-121.2685, 40.948833]}, "properties": {"IncidentName": "3-1 PIT", "PercentContained": 99, "FireDiscoveryDateTime": 1783456502000, "POOCounty": "Lassen", "IrwinID": "69dd692f-9d85-4d69-91e9-ab82aeb5aeb5", "FireOutDateTime": null, "IncidentSize": 1055, "POOProtectingAgency": null, "_calfire_acres": 1055.0, "_calfire_contained": 99.0, "_calfire_updated": "2026-08-03T03:58:24Z", "_calfire_url": "https://www.fire.ca.gov/incidents/2026/7/7/3-1-pit-fire/", "_has_perimeter": true}}, {"type": "Feature", "geometry": {"type": "Point", "coordinates": [-117.68601, 34.4549900000001]}, "properties": {"IncidentName": "SUMMIT", "PercentContained": 100, "FireDiscoveryDateTime": 1783712885000, "POOCounty": "Los Angeles", "IrwinID": "5a2db248-4450-48d2-925c-0b1404f927a8", "FireOutDateTime": null, "IncidentSize": 2690, "POOProtectingAgency": null, "_has_perimeter": true}}, {"type": "Feature", "geometry": {"type": "Point", "coordinates": [-121.064833, 40.02455]}, "properties": {"IncidentName": "TWAIN", "PercentContained": 100, "FireDiscoveryDateTime": 1783795680000, "POOCounty": "Plumas", "IrwinID": "6355def6-3ba2-423b-a1c5-2d653ac09977", "FireOutDateTime": null, "IncidentSize": 276, "POOProtectingAgency": null, "_has_perimeter": true}}, {"type": "Feature", "geometry": {"type": "Point", "coordinates": [-121.154667, 40.965833]}, "properties": {"IncidentName": "LOOMIS", "PercentContained": 99, "FireDiscoveryDateTime": 1783796555000, "POOCounty": "Lassen", "IrwinID": "20bacabe-dcc0-4b41-a0da-997aed50d8c4", "FireOutDateTime": null, "IncidentSize": 656, "POOProtectingAgency": null, "_calfire_acres": 656.0, "_calfire_contained": 99.0, "_calfire_updated": "2026-08-03T04:00:10Z", "_calfire_url": "https://www.fire.ca.gov/incidents/2026/7/11/loomis-fire/", "_has_perimeter": true}}, {"type": "Feature", "geometry": {"type": "Point", "coordinates": [-121.150697, 39.351544]}, "properties": {"IncidentName": "CHUTE", "PercentContained": 95, "FireDiscoveryDateTime": 1783956013000, "POOCounty": "Yuba", "IrwinID": "4c9d1fd7-7131-412a-9995-ca7789782346", "FireOutDateTime": null, "IncidentSize": 162, "POOProtectingAgency": null, "_calfire_acres": 163.0, "_calfire_contained": 95.0, "_calfire_updated": "2026-08-03T01:36:28Z", "_calfire_url": "https://www.fire.ca.gov/incidents/2026/7/13/chute-fire/", "_has_perimeter": true}}, {"type": "Feature", "geometry": {"type": "Point", "coordinates": [-121.374108, 40.27115]}, "properties": {"IncidentName": "L-1", "PercentContained": null, "FireDiscoveryDateTime": 1784211110000, "POOCounty": "Tehama", "IrwinID": "c83f683d-43e8-4dbc-90a2-b95aafc6055c", "FireOutDateTime": null, "IncidentSize": null, "POOProtectingAgency": null, "_has_perimeter": false}}, {"type": "Feature", "geometry": {"type": "Point", "coordinates": [-121.051333, 40.9271670000001]}, "properties": {"IncidentName": "3-6 WAGON", "PercentContained": 100, "FireDiscoveryDateTime": 1784243124000, "POOCounty": "Lassen", "IrwinID": "fb307fa7-f8db-486e-ad9c-38010bbab202", "FireOutDateTime": null, "IncidentSize": 205, "POOProtectingAgency": null, "_has_perimeter": true}}, {"type": "Feature", "geometry": {"type": "Point", "coordinates": [-120.303833, 40.618167]}, "properties": {"IncidentName": "BISCAR", "PercentContained": 100, "FireDiscoveryDateTime": 1784397969000, "POOCounty": "Lassen", "IrwinID": "e3094e35-8b33-4a82-be4b-d2e83652c29f", "FireOutDateTime": null, "IncidentSize": 69352, "POOProtectingAgency": null, "_has_perimeter": true}}, {"type": "Feature", "geometry": {"type": "Point", "coordinates": [-122.253164, 38.901759]}, "properties": {"IncidentName": "RUMSEY", "PercentContained": 100, "FireDiscoveryDateTime": 1784587258000, "POOCounty": "Yolo", "IrwinID": "5f1293e8-bc81-4265-83ed-d06ee6361bd6", "FireOutDateTime": null, "IncidentSize": 396, "POOProtectingAgency": null, "_has_perimeter": true}}, {"type": "Feature", "geometry": {"type": "Point", "coordinates": [-118.241189, 36.916815]}, "properties": {"IncidentName": "ROCK", "PercentContained": 98, "FireDiscoveryDateTime": 1784590433000, "POOCounty": "Inyo", "IrwinID": "4d14be09-9b6d-4656-8ce9-f9145290cda5", "FireOutDateTime": null, "IncidentSize": 12008, "POOProtectingAgency": null, "_calfire_acres": 12008.0, "_calfire_contained": 98.0, "_calfire_updated": "2026-08-04T01:34:22Z", "_calfire_url": "https://www.fire.ca.gov/incidents/2026/7/20/rock-fire/", "_has_perimeter": true}}, {"type": "Feature", "geometry": {"type": "Point", "coordinates": [-120.429683, 37.5280230000001]}, "properties": {"IncidentName": "FIELDS", "PercentContained": 100, "FireDiscoveryDateTime": 1784839576000, "POOCounty": "Merced", "IrwinID": "896fd68a-9817-4db6-8d11-082e5ad32b5e", "FireOutDateTime": null, "IncidentSize": 1280, "POOProtectingAgency": null, "_has_perimeter": true}}, {"type": "Feature", "geometry": {"type": "Point", "coordinates": [-118.284, 36.9961670000001]}, "properties": {"IncidentName": "5-3", "PercentContained": null, "FireDiscoveryDateTime": 1784962280000, "POOCounty": "Inyo", "IrwinID": "ef21ead9-ce4d-48f6-964f-46a398857263", "FireOutDateTime": null, "IncidentSize": 744, "POOProtectingAgency": null, "_has_perimeter": true}}, {"type": "Feature", "geometry": {"type": "Point", "coordinates": [-118.258, 37.015833]}, "properties": {"IncidentName": "5-4", "PercentContained": null, "FireDiscoveryDateTime": 1784962317000, "POOCounty": "Inyo", "IrwinID": "553795bb-902a-4d1c-9a22-5f4609ec8141", "FireOutDateTime": null, "IncidentSize": 1318, "POOProtectingAgency": null, "_has_perimeter": true}}, {"type": "Feature", "geometry": {"type": "Point", "coordinates": [-118.65, 35.2816667000001]}, "properties": {"IncidentName": "FISH", "PercentContained": 100, "FireDiscoveryDateTime": 1785179100000, "POOCounty": "Kern", "IrwinID": "64e33f82-1ea7-4427-a234-05256b79cb7d", "FireOutDateTime": null, "IncidentSize": 4201, "POOProtectingAgency": null, "_has_perimeter": true}}, {"type": "Feature", "geometry": {"type": "Point", "coordinates": [-119.493308, 37.0529250000001]}, "properties": {"IncidentName": "RALEIGH", "PercentContained": null, "FireDiscoveryDateTime": 1785360231000, "POOCounty": "Fresno", "IrwinID": "9452033a-f17a-4032-822c-fa2b80b92464", "FireOutDateTime": null, "IncidentSize": 30.94, "POOProtectingAgency": null, "_has_perimeter": false}}, {"type": "Feature", "geometry": {"type": "Point", "coordinates": [-123.325533, 38.5668670000001]}, "properties": {"IncidentName": "WOODSIDE", "PercentContained": 65, "FireDiscoveryDateTime": 1785444176000, "POOCounty": "Sonoma", "IrwinID": "fdd96dd7-efdf-4a9e-9b90-278795196bba", "FireOutDateTime": null, "IncidentSize": 152, "POOProtectingAgency": null, "_calfire_acres": 152.0, "_calfire_contained": 70.0, "_calfire_updated": "2026-08-04T16:39:28Z", "_calfire_url": "https://www.fire.ca.gov/incidents/2026/7/30/woodside-fire/", "_has_perimeter": true}}, {"type": "Feature", "geometry": {"type": "Point", "coordinates": [-117.861192, 34.4167380000001]}, "properties": {"IncidentName": "FALSE ALARM", "PercentContained": null, "FireDiscoveryDateTime": 1785515539000, "POOCounty": "Los Angeles", "IrwinID": "dcda921b-2b50-487a-8722-aef06488e4f3", "FireOutDateTime": null, "IncidentSize": 0.1, "POOProtectingAgency": null, "_has_perimeter": false}}, {"type": "Feature", "geometry": {"type": "Point", "coordinates": [-116.768027, 33.2662580000001]}, "properties": {"IncidentName": "GRADE", "PercentContained": 90, "FireDiscoveryDateTime": 1785530428000, "POOCounty": "San Diego", "IrwinID": "779d8bc3-af1a-4aec-a878-d34de4f88af3", "FireOutDateTime": null, "IncidentSize": 689, "POOProtectingAgency": null, "_calfire_acres": 689.0, "_calfire_contained": 100.0, "_calfire_updated": "2026-08-04T14:15:15Z", "_calfire_url": "https://www.fire.ca.gov/incidents/2026/7/31/grade-fire/", "_has_perimeter": true}}, {"type": "Feature", "geometry": {"type": "Point", "coordinates": [-118.65061, 34.48096]}, "properties": {"IncidentName": "LOST", "PercentContained": null, "FireDiscoveryDateTime": 1785618285000, "POOCounty": "Los Angeles", "IrwinID": "bab3a4af-9956-487b-a451-c760ac5226c4", "FireOutDateTime": null, "IncidentSize": null, "POOProtectingAgency": null, "_has_perimeter": false}}, {"type": "Feature", "geometry": {"type": "Point", "coordinates": [-123.16114, 38.9924600000001]}, "properties": {"IncidentName": "FELIZ", "PercentContained": 50, "FireDiscoveryDateTime": 1785623948000, "POOCounty": "Mendocino", "IrwinID": "5ac0b49d-3f64-4344-826a-5dbb1925e757", "FireOutDateTime": null, "IncidentSize": 872, "POOProtectingAgency": null, "_calfire_acres": 872.0, "_calfire_contained": 60.0, "_calfire_updated": "2026-08-04T22:04:44Z", "_calfire_url": "https://www.fire.ca.gov/incidents/2026/8/1/feliz-fire/", "_has_perimeter": true}}, {"type": "Feature", "geometry": {"type": "Point", "coordinates": [-118.08135, 34.6897900000001]}, "properties": {"IncidentName": "LAC-270911", "PercentContained": null, "FireDiscoveryDateTime": 1785630225000, "POOCounty": "Los Angeles", "IrwinID": "c4562ab8-624c-4cca-b9d1-ed18fa729db9", "FireOutDateTime": null, "IncidentSize": null, "POOProtectingAgency": null, "_has_perimeter": false}}, {"type": "Feature", "geometry": {"type": "Point", "coordinates": [-118.20976, 33.92319]}, "properties": {"IncidentName": "LAC-270938", "PercentContained": null, "FireDiscoveryDateTime": 1785631375000, "POOCounty": "Los Angeles", "IrwinID": "5b7bf21e-d701-4867-af65-5968b30e9fd1", "FireOutDateTime": null, "IncidentSize": null, "POOProtectingAgency": null, "_has_perimeter": false}}, {"type": "Feature", "geometry": {"type": "Point", "coordinates": [-117.71073, 34.5435600000001]}, "properties": {"IncidentName": "LAC-271196", "PercentContained": null, "FireDiscoveryDateTime": 1785643079000, "POOCounty": "Los Angeles", "IrwinID": "8e7c136e-ded7-4de7-83f8-1deb9b9e1f51", "FireOutDateTime": null, "IncidentSize": null, "POOProtectingAgency": null, "_has_perimeter": false}}, {"type": "Feature", "geometry": {"type": "Point", "coordinates": [-118.24551, 33.9892600000001]}, "properties": {"IncidentName": "LAC-271266", "PercentContained": null, "FireDiscoveryDateTime": 1785646254000, "POOCounty": "Los Angeles", "IrwinID": "a8408b04-b7b7-4689-8411-7e6923beda12", "FireOutDateTime": null, "IncidentSize": null, "POOProtectingAgency": null, "_has_perimeter": false}}, {"type": "Feature", "geometry": {"type": "Point", "coordinates": [-118.1796, 33.9124100000001]}, "properties": {"IncidentName": "LAC-271293", "PercentContained": null, "FireDiscoveryDateTime": 1785647574000, "POOCounty": "Los Angeles", "IrwinID": "29a89da6-0c11-4a49-94ce-dd5e41694450", "FireOutDateTime": null, "IncidentSize": null, "POOProtectingAgency": null, "_has_perimeter": false}}, {"type": "Feature", "geometry": {"type": "Point", "coordinates": [-118.1787, 33.93084]}, "properties": {"IncidentName": "LAC-271497", "PercentContained": null, "FireDiscoveryDateTime": 1785662259000, "POOCounty": "Los Angeles", "IrwinID": "a530e982-9335-461c-8324-e55318da38b6", "FireOutDateTime": null, "IncidentSize": null, "POOProtectingAgency": null, "_has_perimeter": false}}, {"type": "Feature", "geometry": {"type": "Point", "coordinates": [-118.17199, 33.7940600000001]}, "properties": {"IncidentName": "LAC-271511", "PercentContained": null, "FireDiscoveryDateTime": 1785664418000, "POOCounty": "Los Angeles", "IrwinID": "02fe60d1-d80e-4506-8020-e1e16bcae734", "FireOutDateTime": null, "IncidentSize": null, "POOProtectingAgency": null, "_has_perimeter": false}}, {"type": "Feature", "geometry": {"type": "Point", "coordinates": [-118.37051, 33.9633900000001]}, "properties": {"IncidentName": "LAC-271542", "PercentContained": null, "FireDiscoveryDateTime": 1785667806000, "POOCounty": "Los Angeles", "IrwinID": "4afd9330-4c33-4e3b-b9cc-f32086ac3022", "FireOutDateTime": null, "IncidentSize": null, "POOProtectingAgency": null, "_has_perimeter": false}}, {"type": "Feature", "geometry": {"type": "Point", "coordinates": [-118.1053, 33.9020800000001]}, "properties": {"IncidentName": "LAC-271629", "PercentContained": null, "FireDiscoveryDateTime": 1785679388000, "POOCounty": "Los Angeles", "IrwinID": "e1e3a353-7dfe-44d1-b48a-ba22e8969149", "FireOutDateTime": null, "IncidentSize": null, "POOProtectingAgency": null, "_has_perimeter": false}}, {"type": "Feature", "geometry": {"type": "Point", "coordinates": [-117.88961, 34.5799200000001]}, "properties": {"IncidentName": "LAC-271660", "PercentContained": null, "FireDiscoveryDateTime": 1785683093000, "POOCounty": "Los Angeles", "IrwinID": "36c767be-f674-4fcb-8c07-b8b0caa9cdb8", "FireOutDateTime": null, "IncidentSize": null, "POOProtectingAgency": null, "_has_perimeter": false}}, {"type": "Feature", "geometry": {"type": "Point", "coordinates": [-119.625336, 37.72308]}, "properties": {"IncidentName": "PICNIC", "PercentContained": null, "FireDiscoveryDateTime": 1785691828000, "POOCounty": "Mariposa", "IrwinID": "54a2d2dd-8d4d-4058-8460-31d355de1305", "FireOutDateTime": null, "IncidentSize": 0.1, "POOProtectingAgency": null, "_has_perimeter": false}}, {"type": "Feature", "geometry": {"type": "Point", "coordinates": [-118.9433333, 34.9766667000001]}, "properties": {"IncidentName": "MCCARTHY", "PercentContained": null, "FireDiscoveryDateTime": 1785695880000, "POOCounty": "Kern", "IrwinID": "d4632d2c-eab1-48ee-be47-863fbadcd5d9", "FireOutDateTime": null, "IncidentSize": null, "POOProtectingAgency": null, "_has_perimeter": false}}, {"type": "Feature", "geometry": {"type": "Point", "coordinates": [-117.20642, 33.2970490000001]}, "properties": {"IncidentName": "BREEZE", "PercentContained": null, "FireDiscoveryDateTime": 1785697255000, "POOCounty": "San Diego", "IrwinID": "cd0f09c5-9285-4042-94e8-c401d430604a", "FireOutDateTime": null, "IncidentSize": null, "POOProtectingAgency": null, "_has_perimeter": false}}, {"type": "Feature", "geometry": {"type": "Point", "coordinates": [-118.3255, 34.7760500000001]}, "properties": {"IncidentName": "DESERT", "PercentContained": null, "FireDiscoveryDateTime": 1785698241000, "POOCounty": "Los Angeles", "IrwinID": "bd2c0b7e-53f9-41f1-9f91-5d00fcd5fdd8", "FireOutDateTime": null, "IncidentSize": null, "POOProtectingAgency": null, "_has_perimeter": false}}, {"type": "Feature", "geometry": {"type": "Point", "coordinates": [-117.492867, 33.7630830000001]}, "properties": {"IncidentName": "VEHICLE", "PercentContained": null, "FireDiscoveryDateTime": 1785699720000, "POOCounty": "Riverside", "IrwinID": "18da104b-7fe4-4c0f-a7c7-3ec41e1bbeaa", "FireOutDateTime": null, "IncidentSize": 0.1, "POOProtectingAgency": null, "_has_perimeter": false}}, {"type": "Feature", "geometry": {"type": "Point", "coordinates": [-118.10791, 33.9148000000001]}, "properties": {"IncidentName": "LAC-272040", "PercentContained": null, "FireDiscoveryDateTime": 1785703930000, "POOCounty": "Los Angeles", "IrwinID": "2bd5eecf-daaa-40d5-9df9-995c51aae817", "FireOutDateTime": null, "IncidentSize": null, "POOProtectingAgency": null, "_has_perimeter": false}}, {"type": "Feature", "geometry": {"type": "Point", "coordinates": [-118.822923, 34.1967480000001]}, "properties": {"IncidentName": "KANAN", "PercentContained": null, "FireDiscoveryDateTime": 1785704990000, "POOCounty": "Ventura", "IrwinID": "bd381b2b-5326-4dc8-9716-e7022ad7c613", "FireOutDateTime": null, "IncidentSize": null, "POOProtectingAgency": null, "_has_perimeter": false}}, {"type": "Feature", "geometry": {"type": "Point", "coordinates": [-118.0807, 34.1212400000001]}, "properties": {"IncidentName": "LAC-272069", "PercentContained": null, "FireDiscoveryDateTime": 1785705749000, "POOCounty": "Los Angeles", "IrwinID": "840ad81a-6bad-4c10-a739-4301454973b1", "FireOutDateTime": null, "IncidentSize": null, "POOProtectingAgency": null, "_has_perimeter": false}}, {"type": "Feature", "geometry": {"type": "Point", "coordinates": [-118.10411, 33.91711]}, "properties": {"IncidentName": "LAC-272085", "PercentContained": null, "FireDiscoveryDateTime": 1785706675000, "POOCounty": "Los Angeles", "IrwinID": "533896d3-8d7e-4978-8897-789ad7418b85", "FireOutDateTime": null, "IncidentSize": null, "POOProtectingAgency": null, "_has_perimeter": false}}, {"type": "Feature", "geometry": {"type": "Point", "coordinates": [-118.2353, 33.8259200000001]}, "properties": {"IncidentName": "LAC-272103", "PercentContained": null, "FireDiscoveryDateTime": 1785707571000, "POOCounty": "Los Angeles", "IrwinID": "7925a3a6-5e0c-4dea-8f9a-adfd40465ccd", "FireOutDateTime": null, "IncidentSize": null, "POOProtectingAgency": null, "_has_perimeter": false}}, {"type": "Feature", "geometry": {"type": "Point", "coordinates": [-118.10791, 33.9148000000001]}, "properties": {"IncidentName": "LAC-272114", "PercentContained": null, "FireDiscoveryDateTime": 1785708089000, "POOCounty": "Los Angeles", "IrwinID": "dd7396b4-04dd-4322-a0af-fd894a558879", "FireOutDateTime": null, "IncidentSize": null, "POOProtectingAgency": null, "_has_perimeter": false}}, {"type": "Feature", "geometry": {"type": "Point", "coordinates": [-118.49386, 34.3777700000001]}, "properties": {"IncidentName": "PRESTON", "PercentContained": null, "FireDiscoveryDateTime": 1785708951000, "POOCounty": "Los Angeles", "IrwinID": "f091a35d-2f03-4ccf-8560-ea9530c1471d", "FireOutDateTime": null, "IncidentSize": null, "POOProtectingAgency": null, "_has_perimeter": false}}, {"type": "Feature", "geometry": {"type": "Point", "coordinates": [-118.13288, 34.67499]}, "properties": {"IncidentName": "LAC-272165", "PercentContained": null, "FireDiscoveryDateTime": 1785710552000, "POOCounty": "Los Angeles", "IrwinID": "bf037cea-1ecc-473e-84f7-6d4aa49bd3a6", "FireOutDateTime": null, "IncidentSize": null, "POOProtectingAgency": null, "_has_perimeter": false}}, {"type": "Feature", "geometry": {"type": "Point", "coordinates": [-115.190188, 34.812466]}, "properties": {"IncidentName": "GOFFS 2", "PercentContained": null, "FireDiscoveryDateTime": 1785713374000, "POOCounty": "San Bernardino", "IrwinID": "3700b1c7-f85b-404a-b460-cb95c7095558", "FireOutDateTime": null, "IncidentSize": 0.01, "POOProtectingAgency": null, "_has_perimeter": false}}, {"type": "Feature", "geometry": {"type": "Point", "coordinates": [-118.13288, 34.67499]}, "properties": {"IncidentName": "LAC-272223", "PercentContained": null, "FireDiscoveryDateTime": 1785713533000, "POOCounty": "Los Angeles", "IrwinID": "61e9016c-6dc4-4ae1-925a-55fb7a3903f2", "FireOutDateTime": null, "IncidentSize": null, "POOProtectingAgency": null, "_has_perimeter": false}}, {"type": "Feature", "geometry": {"type": "Point", "coordinates": [-118.36053, 34.7471100000001]}, "properties": {"IncidentName": "LAC-272238", "PercentContained": null, "FireDiscoveryDateTime": 1785714234000, "POOCounty": "Los Angeles", "IrwinID": "8efff292-edc4-4de7-b14b-91bd68c1e9b1", "FireOutDateTime": null, "IncidentSize": null, "POOProtectingAgency": null, "_has_perimeter": false}}, {"type": "Feature", "geometry": {"type": "Point", "coordinates": [-116.944996, 33.808881]}, "properties": {"IncidentName": "MTZ/RRU/SOBOBA", "PercentContained": null, "FireDiscoveryDateTime": 1785714504000, "POOCounty": "Riverside", "IrwinID": "22b45bf2-cc99-49c6-a031-dcd4e02e9add", "FireOutDateTime": null, "IncidentSize": 0.01, "POOProtectingAgency": null, "_has_perimeter": false}}, {"type": "Feature", "geometry": {"type": "Point", "coordinates": [-118.15232, 33.9120600000001]}, "properties": {"IncidentName": "LAC-272247", "PercentContained": null, "FireDiscoveryDateTime": 1785714598000, "POOCounty": "Los Angeles", "IrwinID": "5d558ddc-22b0-46c6-bce6-139873e02489", "FireOutDateTime": null, "IncidentSize": null, "POOProtectingAgency": null, "_has_perimeter": false}}, {"type": "Feature", "geometry": {"type": "Point", "coordinates": [-118.14696, 34.7624700000001]}, "properties": {"IncidentName": "LAC-272455", "PercentContained": null, "FireDiscoveryDateTime": 1785724339000, "POOCounty": "Los Angeles", "IrwinID": "8f00432c-ce67-4e0f-8279-e3027c81662d", "FireOutDateTime": null, "IncidentSize": null, "POOProtectingAgency": null, "_has_perimeter": false}}, {"type": "Feature", "geometry": {"type": "Point", "coordinates": [-121.531667, 39.506783]}, "properties": {"IncidentName": "HILLS", "PercentContained": null, "FireDiscoveryDateTime": 1785713565000, "POOCounty": "Butte", "IrwinID": "568f067d-c6b6-4379-b2ce-f650fab32060", "FireOutDateTime": null, "IncidentSize": null, "POOProtectingAgency": null, "_has_perimeter": false}}, {"type": "Feature", "geometry": {"type": "Point", "coordinates": [-117.60166695, 33.6735841500001]}, "properties": {"IncidentName": "SHELTER", "PercentContained": null, "FireDiscoveryDateTime": 1785731745000, "POOCounty": "Orange", "IrwinID": "5b319f8d-9f5b-46a8-891f-0c43ac7fcc68", "FireOutDateTime": null, "IncidentSize": null, "POOProtectingAgency": null, "_has_perimeter": false}}, {"type": "Feature", "geometry": {"type": "Point", "coordinates": [-117.96491, 34.1053400000001]}, "properties": {"IncidentName": "LAC-272741", "PercentContained": null, "FireDiscoveryDateTime": 1785740595000, "POOCounty": "Los Angeles", "IrwinID": "a9713191-8663-4fbb-ae07-a75f086eefa5", "FireOutDateTime": null, "IncidentSize": null, "POOProtectingAgency": null, "_has_perimeter": false}}, {"type": "Feature", "geometry": {"type": "Point", "coordinates": [-118.4933333, 35.1466667]}, "properties": {"IncidentName": "CREST", "PercentContained": null, "FireDiscoveryDateTime": 1785772680000, "POOCounty": "Kern", "IrwinID": "feb7c9d7-15b8-4d25-b2d2-8489610edd9e", "FireOutDateTime": null, "IncidentSize": null, "POOProtectingAgency": null, "_has_perimeter": false}}, {"type": "Feature", "geometry": {"type": "Point", "coordinates": [-116.765528, 33.262327]}, "properties": {"IncidentName": "GRADE", "PercentContained": null, "FireDiscoveryDateTime": 1785530298000, "POOCounty": "San Diego", "IrwinID": "b75adcf5-69be-4a1b-a0cf-da024eebfde2", "FireOutDateTime": null, "IncidentSize": 0.1, "POOProtectingAgency": null, "_calfire_acres": 689.0, "_calfire_contained": 100.0, "_calfire_updated": "2026-08-04T14:15:15Z", "_calfire_url": "https://www.fire.ca.gov/incidents/2026/7/31/grade-fire/", "_has_perimeter": true}}, {"type": "Feature", "geometry": {"type": "Point", "coordinates": [-118.52906, 34.38187]}, "properties": {"IncidentName": "EMBER", "PercentContained": null, "FireDiscoveryDateTime": 1785776618000, "POOCounty": "Los Angeles", "IrwinID": "ac3f38c8-fd41-4244-8f46-9a46ef1664ce", "FireOutDateTime": null, "IncidentSize": null, "POOProtectingAgency": null, "_has_perimeter": false}}, {"type": "Feature", "geometry": {"type": "Point", "coordinates": [-118.6883333, 35.275]}, "properties": {"IncidentName": "BEN", "PercentContained": null, "FireDiscoveryDateTime": 1785784440000, "POOCounty": "Kern", "IrwinID": "f7e65037-08b6-41a8-9547-f29c93a12ed3", "FireOutDateTime": null, "IncidentSize": null, "POOProtectingAgency": null, "_has_perimeter": false}}, {"type": "Feature", "geometry": {"type": "Point", "coordinates": [-118.24483, 34.6455800000001]}, "properties": {"IncidentName": "LAC-273341", "PercentContained": null, "FireDiscoveryDateTime": 1785788755000, "POOCounty": "Los Angeles", "IrwinID": "9c833e40-460f-47d6-b530-389e804ffd2b", "FireOutDateTime": null, "IncidentSize": null, "POOProtectingAgency": null, "_has_perimeter": false}}, {"type": "Feature", "geometry": {"type": "Point", "coordinates": [-118.1789, 33.93087]}, "properties": {"IncidentName": "LAC-273414", "PercentContained": null, "FireDiscoveryDateTime": 1785792371000, "POOCounty": "Los Angeles", "IrwinID": "9e55d4e7-bb3d-41bd-b531-0080839f85e6", "FireOutDateTime": null, "IncidentSize": null, "POOProtectingAgency": null, "_has_perimeter": false}}, {"type": "Feature", "geometry": {"type": "Point", "coordinates": [-118.2017, 34.7039600000001]}, "properties": {"IncidentName": "LAC-273443", "PercentContained": null, "FireDiscoveryDateTime": 1785793531000, "POOCounty": "Los Angeles", "IrwinID": "835615d0-1072-40ab-a9e2-8b989b5c87c3", "FireOutDateTime": null, "IncidentSize": null, "POOProtectingAgency": null, "_has_perimeter": false}}, {"type": "Feature", "geometry": {"type": "Point", "coordinates": [-118.2957, 33.92825]}, "properties": {"IncidentName": "LAC-273556", "PercentContained": null, "FireDiscoveryDateTime": 1785799200000, "POOCounty": "Los Angeles", "IrwinID": "0f1d1ba7-d849-4463-b67d-bcf0db41ec4c", "FireOutDateTime": null, "IncidentSize": null, "POOProtectingAgency": null, "_has_perimeter": false}}, {"type": "Feature", "geometry": {"type": "Point", "coordinates": [-121.289236, 36.461371]}, "properties": {"IncidentName": "BRYANT CANYON RD  SOLEDAD", "PercentContained": null, "FireDiscoveryDateTime": 1785802783000, "POOCounty": "Monterey", "IrwinID": "39515b4d-f42b-41c3-b95c-efcdba55b0eb", "FireOutDateTime": null, "IncidentSize": 0.01, "POOProtectingAgency": null, "_has_perimeter": false}}, {"type": "Feature", "geometry": {"type": "Point", "coordinates": [-118.7617, 34.6644700000001]}, "properties": {"IncidentName": "VISTA", "PercentContained": null, "FireDiscoveryDateTime": 1785802837000, "POOCounty": "Los Angeles", "IrwinID": "e5afa6e2-c970-4e1f-9150-1eb0b163308a", "FireOutDateTime": null, "IncidentSize": null, "POOProtectingAgency": null, "_has_perimeter": false}}, {"type": "Feature", "geometry": {"type": "Point", "coordinates": [-120.77336, 38.1114460000001]}, "properties": {"IncidentName": "GANN", "PercentContained": 0, "FireDiscoveryDateTime": 1785803276000, "POOCounty": "Calaveras", "IrwinID": "a7c819ca-fce9-4e9e-9a7f-c89f2160f102", "FireOutDateTime": null, "IncidentSize": 3000, "POOProtectingAgency": null, "_calfire_acres": 3759.9, "_calfire_contained": null, "_calfire_updated": "2026-08-04T20:23:17Z", "_calfire_url": "https://www.fire.ca.gov/incidents/2026/8/3/gann-fire/", "_has_perimeter": true}}, {"type": "Feature", "geometry": {"type": "Point", "coordinates": [-118.12768, 34.5798300000001]}, "properties": {"IncidentName": "LAC-273669", "PercentContained": null, "FireDiscoveryDateTime": 1785804291000, "POOCounty": "Los Angeles", "IrwinID": "151718d8-1d37-49cc-aaf5-274c8261be46", "FireOutDateTime": null, "IncidentSize": null, "POOProtectingAgency": null, "_has_perimeter": false}}, {"type": "Feature", "geometry": {"type": "Point", "coordinates": [-122.070961, 40.313544]}, "properties": {"IncidentName": "MANTON", "PercentContained": null, "FireDiscoveryDateTime": 1785805754000, "POOCounty": "Tehama", "IrwinID": "0ad5821a-e920-4c92-ad6e-22aec0289a87", "FireOutDateTime": null, "IncidentSize": 41.3, "POOProtectingAgency": null, "_calfire_acres": 41.3, "_calfire_contained": 25.0, "_calfire_updated": "2026-08-04T19:26:29Z", "_calfire_url": "https://www.fire.ca.gov/incidents/2026/8/3/manton-fire/", "_has_perimeter": false}}, {"type": "Feature", "geometry": {"type": "Point", "coordinates": [-119.537367, 37.790283]}, "properties": {"IncidentName": "SNOW", "PercentContained": null, "FireDiscoveryDateTime": 1785809450000, "POOCounty": "Mariposa", "IrwinID": "436e37fe-81eb-409e-8692-ae3b0a92a169", "FireOutDateTime": null, "IncidentSize": 0.1, "POOProtectingAgency": null, "_has_perimeter": false}}, {"type": "Feature", "geometry": {"type": "Point", "coordinates": [-117.068515, 32.6604383000001]}, "properties": {"IncidentName": "54", "PercentContained": null, "FireDiscoveryDateTime": 1785812880000, "POOCounty": "San Diego", "IrwinID": "12aa2ab8-f848-4df3-865f-dc50baa1f18c", "FireOutDateTime": null, "IncidentSize": null, "POOProtectingAgency": null, "_has_perimeter": true}}, {"type": "Feature", "geometry": {"type": "Point", "coordinates": [-117.88851, 33.9899100000001]}, "properties": {"IncidentName": "LAC-273857", "PercentContained": null, "FireDiscoveryDateTime": 1785813072000, "POOCounty": "Los Angeles", "IrwinID": "d9a3ea09-be1c-4dae-9998-55aa6ea4d5dc", "FireOutDateTime": null, "IncidentSize": null, "POOProtectingAgency": null, "_has_perimeter": false}}, {"type": "Feature", "geometry": {"type": "Point", "coordinates": [-118.2207, 33.9302700000001]}, "properties": {"IncidentName": "LAC-273868", "PercentContained": null, "FireDiscoveryDateTime": 1785813479000, "POOCounty": "Los Angeles", "IrwinID": "ebab9c03-58b8-4b6b-931f-206557ce19bc", "FireOutDateTime": null, "IncidentSize": null, "POOProtectingAgency": null, "_has_perimeter": false}}, {"type": "Feature", "geometry": {"type": "Point", "coordinates": [-122.045526, 38.4309030000001]}, "properties": {"IncidentName": "LYON", "PercentContained": null, "FireDiscoveryDateTime": 1785814718000, "POOCounty": "Solano", "IrwinID": "4ceffb3a-2149-4d8f-afc3-f1ffddb206f7", "FireOutDateTime": null, "IncidentSize": null, "POOProtectingAgency": null, "_has_perimeter": false}}, {"type": "Feature", "geometry": {"type": "Point", "coordinates": [-118.13225, 34.6949700000001]}, "properties": {"IncidentName": "LAC-273957", "PercentContained": null, "FireDiscoveryDateTime": 1785819476000, "POOCounty": "Los Angeles", "IrwinID": "9a12831d-3cf8-4d04-9ba5-15712a4345b3", "FireOutDateTime": null, "IncidentSize": null, "POOProtectingAgency": null, "_has_perimeter": false}}, {"type": "Feature", "geometry": {"type": "Point", "coordinates": [-118.1051, 33.9020800000001]}, "properties": {"IncidentName": "LAC-274016", "PercentContained": null, "FireDiscoveryDateTime": 1785823540000, "POOCounty": "Los Angeles", "IrwinID": "91a766ef-3e09-4e8a-837e-1bd24f072d1b", "FireOutDateTime": null, "IncidentSize": null, "POOProtectingAgency": null, "_has_perimeter": false}}, {"type": "Feature", "geometry": {"type": "Point", "coordinates": [-118.23913, 33.91621]}, "properties": {"IncidentName": "LAC-274115", "PercentContained": null, "FireDiscoveryDateTime": 1785831015000, "POOCounty": "Los Angeles", "IrwinID": "9bd329d1-3ffc-4aea-8ec7-7d1e540dcfae", "FireOutDateTime": null, "IncidentSize": null, "POOProtectingAgency": null, "_has_perimeter": false}}, {"type": "Feature", "geometry": {"type": "Point", "coordinates": [-118.17763, 33.90552]}, "properties": {"IncidentName": "LAC-274125", "PercentContained": null, "FireDiscoveryDateTime": 1785832068000, "POOCounty": "Los Angeles", "IrwinID": "6508128c-826a-463a-a896-2532e66e793c", "FireOutDateTime": null, "IncidentSize": null, "POOProtectingAgency": null, "_has_perimeter": false}}, {"type": "Feature", "geometry": {"type": "Point", "coordinates": [-123.7341667, 41.1183333000001]}, "properties": {"IncidentName": "Davis 2", "PercentContained": null, "FireDiscoveryDateTime": 1785846600000, "POOCounty": "Humboldt", "IrwinID": "0ddd4b4b-f302-4f5a-86af-9eab3f0226e7", "FireOutDateTime": null, "IncidentSize": null, "POOProtectingAgency": null, "_has_perimeter": false}}, {"type": "Feature", "geometry": {"type": "Point", "coordinates": [-118.3683, 33.9381000000001]}, "properties": {"IncidentName": "LAC-274244", "PercentContained": null, "FireDiscoveryDateTime": 1785850013000, "POOCounty": "Los Angeles", "IrwinID": "f0537fb2-891a-40dc-b78d-642dc667bddb", "FireOutDateTime": null, "IncidentSize": null, "POOProtectingAgency": null, "_has_perimeter": false}}, {"type": "Feature", "geometry": {"type": "Point", "coordinates": [-118.12538, 34.6473800000001]}, "properties": {"IncidentName": "LAC-274312", "PercentContained": null, "FireDiscoveryDateTime": 1785855790000, "POOCounty": "Los Angeles", "IrwinID": "4cdce373-c507-466a-a3ee-3e9b8d9fdf46", "FireOutDateTime": null, "IncidentSize": null, "POOProtectingAgency": null, "_has_perimeter": false}}, {"type": "Feature", "geometry": {"type": "Point", "coordinates": [-118.00962, 34.53542]}, "properties": {"IncidentName": "LAC-274484", "PercentContained": null, "FireDiscoveryDateTime": 1785866340000, "POOCounty": "Los Angeles", "IrwinID": "97cdb481-a5c1-48f4-8ce9-63d94d09b982", "FireOutDateTime": null, "IncidentSize": null, "POOProtectingAgency": null, "_has_perimeter": false}}, {"type": "Feature", "geometry": {"type": "Point", "coordinates": [-118.33361, 33.92479]}, "properties": {"IncidentName": "LAC-274499", "PercentContained": null, "FireDiscoveryDateTime": 1785866901000, "POOCounty": "Los Angeles", "IrwinID": "88ff6e2f-70c4-40f1-9763-237b48bdb123", "FireOutDateTime": null, "IncidentSize": null, "POOProtectingAgency": null, "_has_perimeter": false}}, {"type": "Feature", "geometry": {"type": "Point", "coordinates": [-118.03026, 34.50622]}, "properties": {"IncidentName": "HASKETT", "PercentContained": null, "FireDiscoveryDateTime": 1785869770000, "POOCounty": "Los Angeles", "IrwinID": "877c31b8-96bb-4744-8d71-9fbf4b412fbd", "FireOutDateTime": null, "IncidentSize": null, "POOProtectingAgency": null, "_calfire_acres": 35.0, "_calfire_contained": null, "_calfire_updated": "2026-08-04T20:42:28Z", "_calfire_url": "https://www.fire.ca.gov/incidents/2026/8/4/haskett-fire/", "_has_perimeter": false}}, {"type": "Feature", "geometry": {"type": "Point", "coordinates": [-122.637671, 38.5123080000001]}, "properties": {"IncidentName": "ERLAND", "PercentContained": null, "FireDiscoveryDateTime": 1785868391000, "POOCounty": "Sonoma", "IrwinID": "1ab34847-e0db-419f-a839-3831d1f4cb3f", "FireOutDateTime": null, "IncidentSize": 0.5, "POOProtectingAgency": null, "_has_perimeter": false}}, {"type": "Feature", "geometry": {"type": "Point", "coordinates": [-117.93925, 34.0199400000001]}, "properties": {"IncidentName": "LAC-274586", "PercentContained": null, "FireDiscoveryDateTime": 1785870886000, "POOCounty": "Los Angeles", "IrwinID": "96f95003-495c-449c-8b8d-c962146af707", "FireOutDateTime": null, "IncidentSize": null, "POOProtectingAgency": null, "_has_perimeter": false}}, {"type": "Feature", "geometry": {"type": "Point", "coordinates": [-118.00534, 34.6721600000001]}, "properties": {"IncidentName": "LAC-274595", "PercentContained": null, "FireDiscoveryDateTime": 1785871229000, "POOCounty": "Los Angeles", "IrwinID": "78002db7-c617-484b-a746-e120d89158c5", "FireOutDateTime": null, "IncidentSize": null, "POOProtectingAgency": null, "_has_perimeter": false}}, {"type": "Feature", "geometry": {"type": "Point", "coordinates": [-117.96696, 34.53747]}, "properties": {"IncidentName": "LAC-274618", "PercentContained": null, "FireDiscoveryDateTime": 1785872665000, "POOCounty": "Los Angeles", "IrwinID": "42800014-f7d5-4498-a706-d7f8e9b04b6a", "FireOutDateTime": null, "IncidentSize": null, "POOProtectingAgency": null, "_has_perimeter": false}}, {"type": "Feature", "geometry": {"type": "Point", "coordinates": [-118.13519, 34.69852]}, "properties": {"IncidentName": "LAC-274623", "PercentContained": null, "FireDiscoveryDateTime": 1785872814000, "POOCounty": "Los Angeles", "IrwinID": "a68febbf-88c0-4817-988f-156311a82e17", "FireOutDateTime": null, "IncidentSize": null, "POOProtectingAgency": null, "_has_perimeter": false}}, {"type": "Feature", "geometry": {"type": "Point", "coordinates": [-118.01108, 34.0310400000001]}, "properties": {"IncidentName": "RINA", "PercentContained": null, "FireDiscoveryDateTime": 1785874624000, "POOCounty": "Los Angeles", "IrwinID": "99543ef2-d3a3-4403-a1c0-930756f21853", "FireOutDateTime": null, "IncidentSize": null, "POOProtectingAgency": null, "_has_perimeter": false}}, {"type": "Feature", "geometry": {"type": "Point", "coordinates": [-118.6033333, 35.2583333000001]}, "properties": {"IncidentName": "CASSIE", "PercentContained": null, "FireDiscoveryDateTime": 1785878940000, "POOCounty": "Kern", "IrwinID": "2003eadd-64cd-42e5-847d-d5bd2289c317", "FireOutDateTime": null, "IncidentSize": null, "POOProtectingAgency": null, "_has_perimeter": false}}, {"type": "Feature", "geometry": {"type": "Point", "coordinates": [-120.146592, 35.5933870000001]}, "properties": {"IncidentName": "WATER", "PercentContained": null, "FireDiscoveryDateTime": 1785880180000, "POOCounty": "San Luis Obispo", "IrwinID": "40d83f23-38d0-45aa-8f5a-e49ab3c4aca9", "FireOutDateTime": null, "IncidentSize": 0.01, "POOProtectingAgency": null, "_has_perimeter": false}}, {"type": "Feature", "geometry": {"type": "Point", "coordinates": [-121.667682, 37.8651990000001]}, "properties": {"IncidentName": "CAMINO", "PercentContained": null, "FireDiscoveryDateTime": 1785880304000, "POOCounty": "Contra Costa", "IrwinID": "119995ec-af32-421b-9ebe-9bb95d137a17", "FireOutDateTime": null, "IncidentSize": 0.01, "POOProtectingAgency": null, "_has_perimeter": false}}, {"type": "Feature", "geometry": {"type": "Point", "coordinates": [-121.486808, 37.403374]}, "properties": {"IncidentName": "Mines Fire", "IncidentSize": 282.0, "PercentContained": 95.0, "POOCounty": "Santa Clara", "POOProtectingAgency": "CAL FIRE", "FireDiscoveryDateTime": 1785100111000, "IrwinID": null, "FireOutDateTime": null, "_calfire_acres": 282.0, "_calfire_contained": 95.0, "_calfire_updated": "2026-08-04T22:04:15Z", "_calfire_url": "https://www.fire.ca.gov/incidents/2026/7/26/mines-fire/", "_calfire_only": true, "_has_perimeter": true}}, {"type": "Feature", "geometry": {"type": "Point", "coordinates": [-117.02468, 34.0991454]}, "properties": {"IncidentName": "Green Fire", "IncidentSize": 55.0, "PercentContained": 83.0, "POOCounty": "San Bernardino", "POOProtectingAgency": "CAL FIRE", "FireDiscoveryDateTime": 1785199350000, "IrwinID": null, "FireOutDateTime": null, "_calfire_acres": 55.0, "_calfire_contained": 83.0, "_calfire_updated": "2026-08-03T14:21:11Z", "_calfire_url": "https://www.fire.ca.gov/incidents/2026/7/27/green-fire/", "_calfire_only": true, "_has_perimeter": true}}]}