{"type": "FeatureCollection", "features": [{"type": "Feature", "geometry": {"type": "Polygon", "coordinates": [[[-118.030998, 34.445812], [-118.049393, 34.474514], [-118.080696, 34.485012], [-118.203697, 34.550411], [-118.252701, 34.575611], [-118.487, 34.676613], [-118.538399, 34.70211], [-118.677994, 34.741413], [-118.805099, 34.817711], [-118.697594, 34.818012], [-118.674565, 34.818191], [-118.645996, 34.818413], [-118.616196, 34.818012], [-118.519295, 34.818012], [-118.4487, 34.817711], [-118.431595, 34.817913], [-118.414093, 34.819012], [-118.405693, 34.819214], [-118.343597, 34.819412], [-118.326195, 34.819611], [-118.308701, 34.820011], [-118.272797, 34.819912], [-118.2509, 34.820213], [-118.227997, 34.820011], [-118.140099, 34.820812], [-118.131096, 34.821011], [-118.051697, 34.821411], [-118.011894, 34.822014], [-117.964294, 34.822411], [-117.881195, 34.822212], [-117.873299, 34.822514], [-117.869995, 34.822311], [-117.858696, 34.822514], [-117.801498, 34.822811], [-117.787994, 34.823112], [-117.754494, 34.823112], [-117.731094, 34.822811], [-117.706299, 34.82291], [-117.667297, 34.822514], [-117.667897, 34.790512], [-117.667697, 34.785712], [-117.667497, 34.752412], [-117.667198, 34.73381], [-117.667297, 34.707211], [-117.666901, 34.675213], [-117.666901, 34.647312], [-117.667099, 34.642612], [-117.666797, 34.633712], [-117.666797, 34.627212], [-117.667198, 34.620514], [-117.667198, 34.614513], [-117.666897, 34.602112], [-117.667, 34.587414], [-117.666697, 34.573512], [-117.847568, 34.527818], [-118.000487, 34.531863], [-118.000397, 34.474712], [-118.004097, 34.438713], [-118.030998, 34.445812]]]}, "properties": {"event": "Wind Advisory", "headline": "Wind Advisory issued June 19 at 12:04AM PDT until June 19 at 10:00PM PDT by NWS Los Angeles/Oxnard CA", "severity": "Moderate", "urgency": "Expected", "certainty": "Likely", "areaDesc": "Western Antelope Valley Foothills; Antelope Valley", "senderName": "NWS Los Angeles/Oxnard CA", "effective": "2026-06-19T00:04:00-07:00", "onset": "2026-06-19T13:00:00-07:00", "expires": "2026-06-19T22:00:00-07:00", "ends": "2026-06-19T22:00:00-07:00", "description": "* WHAT...Southwest winds 20 to 30 mph with gusts up to 45 mph\nexpected.\n\n* WHERE...Antelope Valley and Western Antelope Valley Foothills.\n\n* WHEN...From 1 PM this afternoon to 10 PM PDT this evening.\n\n* IMPACTS...Gusty winds will blow around unsecured objects. Tree\nlimbs could be blown down.", "instruction": "Winds this strong can make driving difficult, especially for high\nprofile vehicles. Use extra caution.\n\nSecure outdoor objects."}}]}