{"type": "FeatureCollection", "crs": {"type": "name", "properties": {"name": "EPSG:4326"}}, "features": [{"type": "Feature", "id": 42271140, "geometry": {"type": "Point", "coordinates": [-116.9274884766, 33.012055602]}, "properties": {"OBJECTID": 42271140, "UtilityCompany": "SDGE", "StartDate": 1782847500000, "EstimatedRestoreDate": 1782862200000, "Cause": "Our equipment has been damaged and our crews need to make repairs.", "ImpactedCustomers": 15, "County": "SAN DIEGO", "OutageStatus": "Active", "OutageType": "Not Planned", "GlobalID": "ebd0a91c-611c-4a74-9a92-088ef7c09947", "OutageTypeColor": "#ffaa00", "OutageStatusColor": null, "IncidentId": "1288989"}}, {"type": "Feature", "id": 42271141, "geometry": {"type": "Point", "coordinates": [-117.0886072021, 32.8160281773]}, "properties": {"OBJECTID": 42271141, "UtilityCompany": "SDGE", "StartDate": 1782731400000, "EstimatedRestoreDate": 1783094400000, "Cause": "Upgrading the electric system in your area requires us to turn off the power. Our crews are working to safely restore your electric service by the estimated restoration time.", "ImpactedCustomers": 1, "County": "SAN DIEGO", "OutageStatus": "Active", "OutageType": "Planned", "GlobalID": "29ffe808-a5c5-4cd4-9a1b-e6f7a1f8e135", "OutageTypeColor": "#a8a800", "OutageStatusColor": null, "IncidentId": "1288600"}}, {"type": "Feature", "id": 42271142, "geometry": {"type": "Point", "coordinates": [-117.3818221678, 33.1968010001]}, "properties": {"OBJECTID": 42271142, "UtilityCompany": "SDGE", "StartDate": 1782834540000, "EstimatedRestoreDate": 1782860400000, "Cause": "Upgrading the electric system in your area requires us to turn off the power. Our crews are working to safely restore your electric service by the estimated restoration time.", "ImpactedCustomers": 85, "County": "SAN DIEGO", "OutageStatus": "Active", "OutageType": "Planned", "GlobalID": "b446b746-2053-493f-a699-e66e482423e9", "OutageTypeColor": "#a8a800", "OutageStatusColor": null, "IncidentId": "1288876"}}, {"type": "Feature", "id": 42271143, "geometry": {"type": "Point", "coordinates": [-117.0886072021, 32.8160281773]}, "properties": {"OBJECTID": 42271143, "UtilityCompany": "SDGE", "StartDate": 1782730800000, "EstimatedRestoreDate": 1783094400000, "Cause": "The start time for today's planned outage has been delayed, however the outage will still occur today.", "ImpactedCustomers": 0, "County": "SAN DIEGO", "OutageStatus": "Active", "OutageType": "Planned", "GlobalID": "9574ccd2-a2c9-4e85-9dff-ff0faa3ea157", "OutageTypeColor": "#a8a800", "OutageStatusColor": null, "IncidentId": "1287347"}}, {"type": "Feature", "id": 42271144, "geometry": {"type": "Point", "coordinates": [-117.3818221678, 33.1968010001]}, "properties": {"OBJECTID": 42271144, "UtilityCompany": "SDGE", "StartDate": 1782833400000, "EstimatedRestoreDate": 1782860400000, "Cause": "The start time for today's planned outage has been delayed, however the outage will still occur today.", "ImpactedCustomers": 0, "County": "SAN DIEGO", "OutageStatus": "Active", "OutageType": "Planned", "GlobalID": "7b6f7f8c-76c9-419f-b686-b9169563c2f4", "OutageTypeColor": "#a8a800", "OutageStatusColor": null, "IncidentId": "1284876"}}, {"type": "Feature", "id": 42271145, "geometry": {"type": "Point", "coordinates": [-121.419137141871, 38.6140393758753]}, "properties": {"OBJECTID": 42271145, "UtilityCompany": "SMUD", "StartDate": 1782856020000, "EstimatedRestoreDate": null, "Cause": "Not yet known", "ImpactedCustomers": 1, "County": "SACRAMENTO", "OutageStatus": "Active", "OutageType": "Not Planned", "GlobalID": "8eda4b93-412b-483e-9478-8d0ade35f603", "OutageTypeColor": "#ffaa00", "OutageStatusColor": null, "IncidentId": "D26063000063"}}, {"type": "Feature", "id": 42271146, "geometry": {"type": "Point", "coordinates": [-121.204203652406, 38.6709726655685]}, "properties": {"OBJECTID": 42271146, "UtilityCompany": "SMUD", "StartDate": 1782859740000, "EstimatedRestoreDate": null, "Cause": "Not yet known", "ImpactedCustomers": 1, "County": "SACRAMENTO", "OutageStatus": "Active", "OutageType": "Not Planned", "GlobalID": "7cb8c66d-bd66-40f8-a8ce-550e8dcc0565", "OutageTypeColor": "#ffaa00", "OutageStatusColor": null, "IncidentId": "D26063000072"}}, {"type": "Feature", "id": 42271147, "geometry": {"type": "Point", "coordinates": [-117.856397589651, 33.6919420413712]}, "properties": {"OBJECTID": 42271147, "UtilityCompany": "SCE", "StartDate": 1781324137000, "EstimatedRestoreDate": 1781362800000, "Cause": "Upgrading Equipment", "ImpactedCustomers": 25, "County": "ORANGE", "OutageStatus": "Active", "OutageType": "Planned", "GlobalID": "eb540f40-7414-4697-bad3-1f8fb11b16d3", "OutageTypeColor": "#a8a800", "OutageStatusColor": null, "IncidentId": "SCE 135928591"}}, {"type": "Feature", "id": 42271148, "geometry": {"type": "Point", "coordinates": [-118.387030401183, 34.0615953614633]}, "properties": {"OBJECTID": 42271148, "UtilityCompany": "SCE", "StartDate": 1782810000000, "EstimatedRestoreDate": 1782864000000, "Cause": "Upgrading Equipment", "ImpactedCustomers": 24, "County": "LOS ANGELES", "OutageStatus": "Active", "OutageType": "Planned", "GlobalID": "b2dbdfd4-252b-4d17-81c6-af032b92ae70", "OutageTypeColor": "#a8a800", "OutageStatusColor": null, "IncidentId": "SCE 136166696"}}, {"type": "Feature", "id": 42271149, "geometry": {"type": "Point", "coordinates": [-117.869368753217, 34.1493552429269]}, "properties": {"OBJECTID": 42271149, "UtilityCompany": "SCE", "StartDate": 1782810000000, "EstimatedRestoreDate": 1782864000000, "Cause": "Upgrading Equipment", "ImpactedCustomers": 69, "County": "LOS ANGELES", "OutageStatus": "Active", "OutageType": "Planned", "GlobalID": "bb9c0a15-1ff5-49bd-a00b-2c0e4b15febd", "OutageTypeColor": "#a8a800", "OutageStatusColor": null, "IncidentId": "SCE 136143498"}}, {"type": "Feature", "id": 42271150, "geometry": {"type": "Point", "coordinates": [-117.165132925478, 33.7397751634646]}, "properties": {"OBJECTID": 42271150, "UtilityCompany": "SCE", "StartDate": 1782806400000, "EstimatedRestoreDate": 1782858600000, "Cause": "Upgrading Equipment", "ImpactedCustomers": 0, "County": "RIVERSIDE", "OutageStatus": "Active", "OutageType": "Planned", "GlobalID": "918de0af-b4c5-45f1-8f3d-d73fda8af2d5", "OutageTypeColor": "#a8a800", "OutageStatusColor": null, "IncidentId": "SCE 136160606"}}, {"type": "Feature", "id": 42271151, "geometry": {"type": "Point", "coordinates": [-118.975201451266, 37.6337715735917]}, "properties": {"OBJECTID": 42271151, "UtilityCompany": "SCE", "StartDate": 1782807300000, "EstimatedRestoreDate": 1782871200000, "Cause": "Upgrading Equipment", "ImpactedCustomers": 319, "County": "MONO", "OutageStatus": "Active", "OutageType": "Planned", "GlobalID": "5061aaf4-47f8-4c37-ae69-8f8bb351d8e1", "OutageTypeColor": "#a8a800", "OutageStatusColor": null, "IncidentId": "SCE 136186449"}}, {"type": "Feature", "id": 42271152, "geometry": {"type": "Point", "coordinates": [-117.262626929986, 33.696148986456]}, "properties": {"OBJECTID": 42271152, "UtilityCompany": "SCE", "StartDate": 1782806400000, "EstimatedRestoreDate": 1782865800000, "Cause": "Upgrading Equipment", "ImpactedCustomers": 0, "County": "RIVERSIDE", "OutageStatus": "Active", "OutageType": "Planned", "GlobalID": "ddcce98a-1484-4755-bd85-d58b03043b07", "OutageTypeColor": "#a8a800", "OutageStatusColor": null, "IncidentId": "SCE 136166513"}}, {"type": "Feature", "id": 42271153, "geometry": {"type": "Point", "coordinates": [-117.70467515191, 33.9593883519881]}, "properties": {"OBJECTID": 42271153, "UtilityCompany": "SCE", "StartDate": 1782806400000, "EstimatedRestoreDate": 1782864000000, "Cause": "Upgrading Equipment", "ImpactedCustomers": 261, "County": "SAN BERNARDINO", "OutageStatus": "Active", "OutageType": "Planned", "GlobalID": "d0634d70-8809-4649-9178-91253000af1b", "OutageTypeColor": "#a8a800", "OutageStatusColor": null, "IncidentId": "SCE 136158219"}}, {"type": "Feature", "id": 42271154, "geometry": {"type": "Point", "coordinates": [-118.762585533426, 34.2744418519994]}, "properties": {"OBJECTID": 42271154, "UtilityCompany": "SCE", "StartDate": 1782813600000, "EstimatedRestoreDate": 1782862200000, "Cause": "Transformer Upgrade", "ImpactedCustomers": 74, "County": "VENTURA", "OutageStatus": "Active", "OutageType": "Planned", "GlobalID": "3e77c5bd-2c8f-4cba-b7e0-a096680f4bf4", "OutageTypeColor": "#a8a800", "OutageStatusColor": null, "IncidentId": "SCE 136154558"}}, {"type": "Feature", "id": 42271155, "geometry": {"type": "Point", "coordinates": [-117.00013120526, 33.5593811242503]}, "properties": {"OBJECTID": 42271155, "UtilityCompany": "SCE", "StartDate": 1782802800000, "EstimatedRestoreDate": 1782871200000, "Cause": "Upgrading Equipment", "ImpactedCustomers": 577, "County": "RIVERSIDE", "OutageStatus": "Active", "OutageType": "Planned", "GlobalID": "ef978b94-1710-41b2-8a94-7c21c26245af", "OutageTypeColor": "#a8a800", "OutageStatusColor": null, "IncidentId": "SCE 136166428"}}, {"type": "Feature", "id": 42271156, "geometry": {"type": "Point", "coordinates": [-116.97359298296, 33.7248416666939]}, "properties": {"OBJECTID": 42271156, "UtilityCompany": "SCE", "StartDate": 1782832041000, "EstimatedRestoreDate": 1782860841000, "Cause": "Analyzing Problem", "ImpactedCustomers": 1707, "County": "RIVERSIDE", "OutageStatus": "Active", "OutageType": "Not Planned", "GlobalID": "eb53948e-3b33-4810-a908-59b827c8f5ec", "OutageTypeColor": "#ffaa00", "OutageStatusColor": null, "IncidentId": "SCE 136215151"}}, {"type": "Feature", "id": 42271157, "geometry": {"type": "Point", "coordinates": [-116.960829546555, 33.7349356371227]}, "properties": {"OBJECTID": 42271157, "UtilityCompany": "SCE", "StartDate": 1782813334000, "EstimatedRestoreDate": 1782862200000, "Cause": "Equipment Problems", "ImpactedCustomers": 37, "County": "RIVERSIDE", "OutageStatus": "Active", "OutageType": "Not Planned", "GlobalID": "afe87f13-d098-42e5-8381-56438e9317ed", "OutageTypeColor": "#ffaa00", "OutageStatusColor": null, "IncidentId": "SCE 136213828"}}, {"type": "Feature", "id": 42271158, "geometry": {"type": "Point", "coordinates": [-117.227906108465, 34.2285236295414]}, "properties": {"OBJECTID": 42271158, "UtilityCompany": "SCE", "StartDate": 1782808200000, "EstimatedRestoreDate": 1782864000000, "Cause": "Upgrading Equipment", "ImpactedCustomers": 26, "County": "SAN BERNARDINO", "OutageStatus": "Active", "OutageType": "Planned", "GlobalID": "73a590ba-aa12-45db-9d08-20395f2efed4", "OutageTypeColor": "#a8a800", "OutageStatusColor": null, "IncidentId": "SCE 136149064"}}, {"type": "Feature", "id": 42271159, "geometry": {"type": "Point", "coordinates": [-116.507444395772, 33.9578844033114]}, "properties": {"OBJECTID": 42271159, "UtilityCompany": "SCE", "StartDate": 1780290000000, "EstimatedRestoreDate": 1780344000000, "Cause": "Upgrading Equipment", "ImpactedCustomers": 51, "County": "RIVERSIDE", "OutageStatus": "Active", "OutageType": "Planned", "GlobalID": "c315e3a6-9296-4e2c-8e77-29d5131b7ade", "OutageTypeColor": "#a8a800", "OutageStatusColor": null, "IncidentId": "SCE 135922627"}}, {"type": "Feature", "id": 42271160, "geometry": {"type": "Point", "coordinates": [-117.685334106536, 33.6337822475007]}, "properties": {"OBJECTID": 42271160, "UtilityCompany": "SCE", "StartDate": 1782830363000, "EstimatedRestoreDate": 1782864000000, "Cause": "Equipment Problems", "ImpactedCustomers": 60, "County": "ORANGE", "OutageStatus": "Active", "OutageType": "Not Planned", "GlobalID": "56b2e92b-723b-4eb8-a802-56404a9acf2b", "OutageTypeColor": "#ffaa00", "OutageStatusColor": null, "IncidentId": "SCE 136215071"}}, {"type": "Feature", "id": 42271161, "geometry": {"type": "Point", "coordinates": [-116.102836578106, 35.2954931135419]}, "properties": {"OBJECTID": 42271161, "UtilityCompany": "SCE", "StartDate": 1782807779000, "EstimatedRestoreDate": 1782860400000, "Cause": "Upgrading Equipment", "ImpactedCustomers": 17, "County": "SAN BERNARDINO", "OutageStatus": "Active", "OutageType": "Planned", "GlobalID": "c2472d90-5546-489d-866b-4ba884408930", "OutageTypeColor": "#a8a800", "OutageStatusColor": null, "IncidentId": "SCE 136166657"}}, {"type": "Feature", "id": 42271162, "geometry": {"type": "Point", "coordinates": [-117.925120084734, 34.5677262308954]}, "properties": {"OBJECTID": 42271162, "UtilityCompany": "SCE", "StartDate": 1782810018000, "EstimatedRestoreDate": 1782869400000, "Cause": "Pole Upgrade", "ImpactedCustomers": 45, "County": "LOS ANGELES", "OutageStatus": "Active", "OutageType": "Planned", "GlobalID": "1ce3adf3-f711-4f39-a94d-3a208fda3379", "OutageTypeColor": "#a8a800", "OutageStatusColor": null, "IncidentId": "SCE 136159464"}}, {"type": "Feature", "id": 42271163, "geometry": {"type": "Point", "coordinates": [-117.781367464525, 33.6651296552081]}, "properties": {"OBJECTID": 42271163, "UtilityCompany": "SCE", "StartDate": 1782810000000, "EstimatedRestoreDate": 1782867600000, "Cause": "Upgrading Equipment", "ImpactedCustomers": 2082, "County": "ORANGE", "OutageStatus": "Active", "OutageType": "Planned", "GlobalID": "d3d81135-3eeb-44f9-9a9b-828eaf7861da", "OutageTypeColor": "#a8a800", "OutageStatusColor": null, "IncidentId": "SCE 136159812"}}, {"type": "Feature", "id": 42271164, "geometry": {"type": "Point", "coordinates": [-117.02308111048, 33.9746582672203]}, "properties": {"OBJECTID": 42271164, "UtilityCompany": "SCE", "StartDate": 1782810000000, "EstimatedRestoreDate": 1782864000000, "Cause": "Upgrading Equipment", "ImpactedCustomers": 4, "County": "RIVERSIDE", "OutageStatus": "Active", "OutageType": "Planned", "GlobalID": "37b8af30-9d80-47b6-86fa-32bf2b29be2b", "OutageTypeColor": "#a8a800", "OutageStatusColor": null, "IncidentId": "SCE 136149318"}}, {"type": "Feature", "id": 42271165, "geometry": {"type": "Point", "coordinates": [-118.475183511158, 34.0047116543458]}, "properties": {"OBJECTID": 42271165, "UtilityCompany": "SCE", "StartDate": 1782806400000, "EstimatedRestoreDate": 1782864000000, "Cause": "Pole Upgrade", "ImpactedCustomers": 334, "County": "LOS ANGELES", "OutageStatus": "Active", "OutageType": "Planned", "GlobalID": "1c0478fd-d78d-4a1a-8ddd-3b8486076c17", "OutageTypeColor": "#a8a800", "OutageStatusColor": null, "IncidentId": "SCE 136191405"}}, {"type": "Feature", "id": 42271166, "geometry": {"type": "Point", "coordinates": [-119.168123975561, 34.1638556563107]}, "properties": {"OBJECTID": 42271166, "UtilityCompany": "SCE", "StartDate": 1782815400000, "EstimatedRestoreDate": 1782867600000, "Cause": "Pole Upgrade", "ImpactedCustomers": 25, "County": "VENTURA", "OutageStatus": "Active", "OutageType": "Planned", "GlobalID": "c1548d6b-a586-4185-83cb-73fc5120ea48", "OutageTypeColor": "#a8a800", "OutageStatusColor": null, "IncidentId": "SCE 136158752"}}, {"type": "Feature", "id": 42271167, "geometry": {"type": "Point", "coordinates": [-118.976158749772, 37.6352916455045]}, "properties": {"OBJECTID": 42271167, "UtilityCompany": "SCE", "StartDate": 1782807300000, "EstimatedRestoreDate": 1782867600000, "Cause": "Upgrading Equipment", "ImpactedCustomers": 8, "County": "MONO", "OutageStatus": "Active", "OutageType": "Planned", "GlobalID": "2b76a435-ea40-472a-ae8e-5f4eb557822c", "OutageTypeColor": "#a8a800", "OutageStatusColor": null, "IncidentId": "SCE 136186500"}}, {"type": "Feature", "id": 42271168, "geometry": {"type": "Point", "coordinates": [-118.971323760745, 37.6358331220084]}, "properties": {"OBJECTID": 42271168, "UtilityCompany": "SCE", "StartDate": 1782807300000, "EstimatedRestoreDate": 1782871200000, "Cause": "Upgrading Equipment", "ImpactedCustomers": 142, "County": "MONO", "OutageStatus": "Active", "OutageType": "Planned", "GlobalID": "5d3addb4-069f-42bd-b237-a9f58af0e6d4", "OutageTypeColor": "#a8a800", "OutageStatusColor": null, "IncidentId": "SCE 136186537"}}, {"type": "Feature", "id": 42271169, "geometry": {"type": "Point", "coordinates": [-118.454244795415, 34.4127228552881]}, "properties": {"OBJECTID": 42271169, "UtilityCompany": "SCE", "StartDate": 1782829287000, "EstimatedRestoreDate": 1782867600000, "Cause": "Equipment Problems", "ImpactedCustomers": 76, "County": "LOS ANGELES", "OutageStatus": "Active", "OutageType": "Not Planned", "GlobalID": "15ba9893-98a7-4287-b29c-cc070b5c8627", "OutageTypeColor": "#ffaa00", "OutageStatusColor": null, "IncidentId": "SCE 136215012"}}, {"type": "Feature", "id": 42271170, "geometry": {"type": "Point", "coordinates": [-118.674016943123, 35.5235248181606]}, "properties": {"OBJECTID": 42271170, "UtilityCompany": "SCE", "StartDate": 1782806777000, "EstimatedRestoreDate": 1782865800000, "Cause": "Upgrading Equipment", "ImpactedCustomers": 3, "County": "KERN", "OutageStatus": "Active", "OutageType": "Planned", "GlobalID": "183fac1c-9e1c-493f-b537-a2c32956e51c", "OutageTypeColor": "#a8a800", "OutageStatusColor": null, "IncidentId": "SCE 136160289"}}, {"type": "Feature", "id": 42271171, "geometry": {"type": "Point", "coordinates": [-117.826464052686, 34.1489119848184]}, "properties": {"OBJECTID": 42271171, "UtilityCompany": "SCE", "StartDate": 1782810000000, "EstimatedRestoreDate": 1782862200000, "Cause": "Upgrading Equipment", "ImpactedCustomers": 11, "County": "LOS ANGELES", "OutageStatus": "Active", "OutageType": "Planned", "GlobalID": "6e300de1-fb87-4222-ac46-f49179ffb5e8", "OutageTypeColor": "#a8a800", "OutageStatusColor": null, "IncidentId": "SCE 136144701"}}, {"type": "Feature", "id": 42271172, "geometry": {"type": "Point", "coordinates": [-118.474019065477, 34.0016927085542]}, "properties": {"OBJECTID": 42271172, "UtilityCompany": "SCE", "StartDate": 1782806400000, "EstimatedRestoreDate": 1782864000000, "Cause": "Pole Upgrade", "ImpactedCustomers": 280, "County": "LOS ANGELES", "OutageStatus": "Active", "OutageType": "Planned", "GlobalID": "99020e1b-984e-4836-9ff8-3be0d1b3718c", "OutageTypeColor": "#a8a800", "OutageStatusColor": null, "IncidentId": "SCE 136191432"}}, {"type": "Feature", "id": 42271173, "geometry": {"type": "Point", "coordinates": [-117.941401727405, 34.0387831120319]}, "properties": {"OBJECTID": 42271173, "UtilityCompany": "SCE", "StartDate": 1782806400000, "EstimatedRestoreDate": 1782860400000, "Cause": "Pole Upgrade", "ImpactedCustomers": 135, "County": "LOS ANGELES", "OutageStatus": "Active", "OutageType": "Planned", "GlobalID": "35c6fecc-a0c7-4d6b-b23d-792048efa293", "OutageTypeColor": "#a8a800", "OutageStatusColor": null, "IncidentId": "SCE 136045563"}}, {"type": "Feature", "id": 42271174, "geometry": {"type": "Point", "coordinates": [-119.678873233009, 34.4450636588782]}, "properties": {"OBJECTID": 42271174, "UtilityCompany": "SCE", "StartDate": 1782810000000, "EstimatedRestoreDate": 1782864000000, "Cause": "Pole Upgrade", "ImpactedCustomers": 52, "County": "SANTA BARBARA", "OutageStatus": "Active", "OutageType": "Planned", "GlobalID": "454920e0-f480-40f9-b0b9-2d3838228b6b", "OutageTypeColor": "#a8a800", "OutageStatusColor": null, "IncidentId": "SCE 136151635"}}, {"type": "Feature", "id": 42271175, "geometry": {"type": "Point", "coordinates": [-117.016702596161, 34.8749749901001]}, "properties": {"OBJECTID": 42271175, "UtilityCompany": "SCE", "StartDate": 1782810067000, "EstimatedRestoreDate": 1782858600000, "Cause": "Upgrading Equipment", "ImpactedCustomers": 1, "County": "SAN BERNARDINO", "OutageStatus": "Active", "OutageType": "Planned", "GlobalID": "b43eb06b-4ccd-4385-9b3f-785655445602", "OutageTypeColor": "#a8a800", "OutageStatusColor": null, "IncidentId": "SCE 136160633"}}, {"type": "Feature", "id": 42271176, "geometry": {"type": "Point", "coordinates": [-119.190715399998, 34.2167323504751]}, "properties": {"OBJECTID": 42271176, "UtilityCompany": "SCE", "StartDate": 1782832316000, "EstimatedRestoreDate": 1782874800000, "Cause": "Analyzing Problem", "ImpactedCustomers": 483, "County": "VENTURA", "OutageStatus": "Active", "OutageType": "Not Planned", "GlobalID": "bd070b50-5131-429f-b73c-e63a7d349fe3", "OutageTypeColor": "#ffaa00", "OutageStatusColor": null, "IncidentId": "SCE 136215203"}}, {"type": "Feature", "id": 42271177, "geometry": {"type": "Point", "coordinates": [-119.196554213433, 34.242580170847]}, "properties": {"OBJECTID": 42271177, "UtilityCompany": "SCE", "StartDate": 1782811800000, "EstimatedRestoreDate": 1782865800000, "Cause": "Upgrading Equipment", "ImpactedCustomers": 2, "County": "VENTURA", "OutageStatus": "Active", "OutageType": "Planned", "GlobalID": "ecbe4c66-9657-40f8-863b-d42eb81b0e3c", "OutageTypeColor": "#a8a800", "OutageStatusColor": null, "IncidentId": "SCE 136160271"}}, {"type": "Feature", "id": 42271178, "geometry": {"type": "Point", "coordinates": [-118.149124538634, 34.1165738582282]}, "properties": {"OBJECTID": 42271178, "UtilityCompany": "SCE", "StartDate": 1782782516000, "EstimatedRestoreDate": null, "Cause": "Analyzing Problem", "ImpactedCustomers": 1, "County": "LOS ANGELES", "OutageStatus": "Active", "OutageType": "Not Planned", "GlobalID": "476df489-ddf8-45de-80a5-93d9f8c3c672", "OutageTypeColor": "#ffaa00", "OutageStatusColor": null, "IncidentId": "SCE 136212746"}}, {"type": "Feature", "id": 42271179, "geometry": {"type": "Point", "coordinates": [-119.307143298141, 36.2761489534196]}, "properties": {"OBJECTID": 42271179, "UtilityCompany": "SCE", "StartDate": 1782806400000, "EstimatedRestoreDate": 1782860400000, "Cause": "Upgrading Equipment", "ImpactedCustomers": 12, "County": "TULARE", "OutageStatus": "Active", "OutageType": "Planned", "GlobalID": "005a415b-e499-4850-b9f0-94726c182520", "OutageTypeColor": "#a8a800", "OutageStatusColor": null, "IncidentId": "SCE 136160688"}}, {"type": "Feature", "id": 42271180, "geometry": {"type": "Point", "coordinates": [-118.140854145173, 33.7701641658151]}, "properties": {"OBJECTID": 42271180, "UtilityCompany": "SCE", "StartDate": 1779868800000, "EstimatedRestoreDate": 1779926400000, "Cause": "Pole Upgrade", "ImpactedCustomers": 34, "County": "LOS ANGELES", "OutageStatus": "Active", "OutageType": "Planned", "GlobalID": "2070dd7a-3007-4927-a730-6f005b443386", "OutageTypeColor": "#a8a800", "OutageStatusColor": null, "IncidentId": "SCE 135926632"}}, {"type": "Feature", "id": 42271181, "geometry": {"type": "Point", "coordinates": [-118.227086240417, 34.2367641105229]}, "properties": {"OBJECTID": 42271181, "UtilityCompany": "SCE", "StartDate": 1782806400000, "EstimatedRestoreDate": 1782858600000, "Cause": "Upgrading Equipment", "ImpactedCustomers": 42, "County": "LOS ANGELES", "OutageStatus": "Active", "OutageType": "Planned", "GlobalID": "fde34ffd-ff43-4292-bd3d-8df88a5966ec", "OutageTypeColor": "#a8a800", "OutageStatusColor": null, "IncidentId": "SCE 136160205"}}, {"type": "Feature", "id": 42271182, "geometry": {"type": "Point", "coordinates": [-117.158268879134, 33.9182416517091]}, "properties": {"OBJECTID": 42271182, "UtilityCompany": "SCE", "StartDate": 1782810000000, "EstimatedRestoreDate": 1782867600000, "Cause": "Upgrading Equipment", "ImpactedCustomers": 49, "County": "RIVERSIDE", "OutageStatus": "Active", "OutageType": "Planned", "GlobalID": "f01e3b8c-4701-42a3-ab4c-245577de4e80", "OutageTypeColor": "#a8a800", "OutageStatusColor": null, "IncidentId": "SCE 136149306"}}, {"type": "Feature", "id": 42271183, "geometry": {"type": "Point", "coordinates": [-117.89340030785, 34.0665303871861]}, "properties": {"OBJECTID": 42271183, "UtilityCompany": "SCE", "StartDate": 1782813000000, "EstimatedRestoreDate": 1782860400000, "Cause": "Upgrading Equipment", "ImpactedCustomers": 6, "County": "LOS ANGELES", "OutageStatus": "Active", "OutageType": "Planned", "GlobalID": "ea7cdbac-722d-4040-8a14-7e9f0d5cd174", "OutageTypeColor": "#a8a800", "OutageStatusColor": null, "IncidentId": "SCE 136158211"}}, {"type": "Feature", "id": 42271184, "geometry": {"type": "Point", "coordinates": [-118.018546083657, 33.9723544064524]}, "properties": {"OBJECTID": 42271184, "UtilityCompany": "SCE", "StartDate": 1782810000000, "EstimatedRestoreDate": 1782865800000, "Cause": "Pole Upgrade", "ImpactedCustomers": 11, "County": "LOS ANGELES", "OutageStatus": "Active", "OutageType": "Planned", "GlobalID": "c4e755d0-18ba-450b-b6f1-fa7154aa7485", "OutageTypeColor": "#a8a800", "OutageStatusColor": null, "IncidentId": "SCE 136154703"}}, {"type": "Feature", "id": 42271185, "geometry": {"type": "Point", "coordinates": [-118.975025408206, 37.6367261392108]}, "properties": {"OBJECTID": 42271185, "UtilityCompany": "SCE", "StartDate": 1782807300000, "EstimatedRestoreDate": 1782871200000, "Cause": "Upgrading Equipment", "ImpactedCustomers": 98, "County": "MONO", "OutageStatus": "Active", "OutageType": "Planned", "GlobalID": "9158b770-56dd-434c-9236-930dc359a23e", "OutageTypeColor": "#a8a800", "OutageStatusColor": null, "IncidentId": "SCE 136186490"}}, {"type": "Feature", "id": 42271186, "geometry": {"type": "Point", "coordinates": [-118.881479446466, 34.271003946457]}, "properties": {"OBJECTID": 42271186, "UtilityCompany": "SCE", "StartDate": 1782810000000, "EstimatedRestoreDate": 1782860400000, "Cause": "Upgrading Equipment", "ImpactedCustomers": 69, "County": "VENTURA", "OutageStatus": "Active", "OutageType": "Planned", "GlobalID": "1ff5c161-716c-46e7-8267-9cfc3cb74696", "OutageTypeColor": "#a8a800", "OutageStatusColor": null, "IncidentId": "SCE 136154142"}}, {"type": "Feature", "id": 42271187, "geometry": {"type": "Point", "coordinates": [-116.071565770188, 35.2716670074841]}, "properties": {"OBJECTID": 42271187, "UtilityCompany": "SCE", "StartDate": 1782807779000, "EstimatedRestoreDate": 1782860400000, "Cause": "Upgrading Equipment", "ImpactedCustomers": 0, "County": "SAN BERNARDINO", "OutageStatus": "Active", "OutageType": "Planned", "GlobalID": "e39b490b-8a73-436b-bea6-49979fb83de8", "OutageTypeColor": "#a8a800", "OutageStatusColor": null, "IncidentId": "SCE 136166666"}}, {"type": "Feature", "id": 42271188, "geometry": {"type": "Point", "coordinates": [-118.133833061027, 34.1026310296195]}, "properties": {"OBJECTID": 42271188, "UtilityCompany": "SCE", "StartDate": 1782811821000, "EstimatedRestoreDate": 1782865800000, "Cause": "Upgrading Equipment", "ImpactedCustomers": 133, "County": "LOS ANGELES", "OutageStatus": "Active", "OutageType": "Planned", "GlobalID": "5e125622-bdd7-48ad-9713-d178f1a48c45", "OutageTypeColor": "#a8a800", "OutageStatusColor": null, "IncidentId": "SCE 136160305"}}, {"type": "Feature", "id": 42271189, "geometry": {"type": "Point", "coordinates": [-117.977697253206, 33.7566811912712]}, "properties": {"OBJECTID": 42271189, "UtilityCompany": "SCE", "StartDate": 1782806400000, "EstimatedRestoreDate": 1782860400000, "Cause": "Pole Upgrade", "ImpactedCustomers": 145, "County": "ORANGE", "OutageStatus": "Active", "OutageType": "Planned", "GlobalID": "04f9943c-3776-4e29-81c0-e5abd9f341e6", "OutageTypeColor": "#a8a800", "OutageStatusColor": null, "IncidentId": "SCE 136164058"}}, {"type": "Feature", "id": 42271190, "geometry": {"type": "Point", "coordinates": [-121.54429, 40.93003]}, "properties": {"OBJECTID": 42271190, "UtilityCompany": "PGE", "StartDate": 1782750720000, "EstimatedRestoreDate": 1782846000000, "Cause": "PLNND SHUTDOWN", "ImpactedCustomers": 7, "County": "SHASTA", "OutageStatus": "Active", "OutageType": "Planned", "GlobalID": "f64a2e2e-91d6-4318-b308-81ff92ba5266", "OutageTypeColor": "#a8a800", "OutageStatusColor": null, "IncidentId": "293373"}}, {"type": "Feature", "id": 42271191, "geometry": {"type": "Point", "coordinates": [-122.02604, 37.58131]}, "properties": {"OBJECTID": 42271191, "UtilityCompany": "PGE", "StartDate": 1782797302000, "EstimatedRestoreDate": 1782871200000, "Cause": "DAMGE UG CABLE", "ImpactedCustomers": 1, "County": "ALAMEDA", "OutageStatus": "Active", "OutageType": "Not Planned", "GlobalID": "a0de5dee-183a-4579-87f1-119deb809057", "OutageTypeColor": "#ffaa00", "OutageStatusColor": null, "IncidentId": "293849"}}, {"type": "Feature", "id": 42271192, "geometry": {"type": "Point", "coordinates": [-122.26143, 37.8375]}, "properties": {"OBJECTID": 42271192, "UtilityCompany": "PGE", "StartDate": 1782816540000, "EstimatedRestoreDate": 1782897300000, "Cause": "BRKN UG EQUIPMNT", "ImpactedCustomers": 10, "County": "ALAMEDA", "OutageStatus": "Active", "OutageType": "Not Planned", "GlobalID": "3ffe65be-af38-48b9-a7fb-d3d6b2c65332", "OutageTypeColor": "#ffaa00", "OutageStatusColor": null, "IncidentId": "293885"}}, {"type": "Feature", "id": 42271193, "geometry": {"type": "Point", "coordinates": [-121.08106, 38.89837]}, "properties": {"OBJECTID": 42271193, "UtilityCompany": "PGE", "StartDate": 1782825720000, "EstimatedRestoreDate": 1782862440000, "Cause": "TREE CONTACT", "ImpactedCustomers": 86, "County": "PLACER", "OutageStatus": "Active", "OutageType": "Not Planned", "GlobalID": "28d74116-5747-43b8-9543-49ac629d8994", "OutageTypeColor": "#ffaa00", "OutageStatusColor": null, "IncidentId": "293936"}}, {"type": "Feature", "id": 42271194, "geometry": {"type": "Point", "coordinates": [-121.72551, 36.93869]}, "properties": {"OBJECTID": 42271194, "UtilityCompany": "PGE", "StartDate": 1782826500000, "EstimatedRestoreDate": 1782864900000, "Cause": "THRD PARTY", "ImpactedCustomers": 1, "County": "SANTA CRUZ", "OutageStatus": "Active", "OutageType": "Not Planned", "GlobalID": "941e992f-f2d1-4990-9a9a-ac3db287324e", "OutageTypeColor": "#ffaa00", "OutageStatusColor": null, "IncidentId": "293937"}}, {"type": "Feature", "id": 42271195, "geometry": {"type": "Point", "coordinates": [-122.4885, 38.27249]}, "properties": {"OBJECTID": 42271195, "UtilityCompany": "PGE", "StartDate": 1782830174000, "EstimatedRestoreDate": 1782882000000, "Cause": "FOREIGN OBJ", "ImpactedCustomers": 2, "County": "SONOMA", "OutageStatus": "Active", "OutageType": "Not Planned", "GlobalID": "5cac7f80-bb9e-4adf-a10d-eb4f1e1498fa", "OutageTypeColor": "#ffaa00", "OutageStatusColor": null, "IncidentId": "294024"}}, {"type": "Feature", "id": 42271196, "geometry": {"type": "Point", "coordinates": [-121.47881, 37.71272]}, "properties": {"OBJECTID": 42271196, "UtilityCompany": "PGE", "StartDate": 1782830326000, "EstimatedRestoreDate": 1782864000000, "Cause": "THRD PARTY", "ImpactedCustomers": 14, "County": "SAN JOAQUIN", "OutageStatus": "Active", "OutageType": "Not Planned", "GlobalID": "caca9453-ee15-4dd4-9989-91e514023e02", "OutageTypeColor": "#ffaa00", "OutageStatusColor": null, "IncidentId": "294026"}}, {"type": "Feature", "id": 42271197, "geometry": {"type": "Point", "coordinates": [-122.48441, 40.59245]}, "properties": {"OBJECTID": 42271197, "UtilityCompany": "PGE", "StartDate": 1782831600000, "EstimatedRestoreDate": 1782860400000, "Cause": "PLNND SHUTDOWN", "ImpactedCustomers": 57, "County": "SHASTA", "OutageStatus": "Active", "OutageType": "Planned", "GlobalID": "cedc4542-42b6-483c-bfcf-da4c8f996b13", "OutageTypeColor": "#a8a800", "OutageStatusColor": null, "IncidentId": "294045"}}, {"type": "Feature", "id": 42271198, "geometry": {"type": "Point", "coordinates": [-120.5571, 35.16284]}, "properties": {"OBJECTID": 42271198, "UtilityCompany": "PGE", "StartDate": 1782831831000, "EstimatedRestoreDate": 1782860400000, "Cause": "PLNND SHUTDOWN", "ImpactedCustomers": 16, "County": "SAN LUIS OBISPO", "OutageStatus": "Active", "OutageType": "Planned", "GlobalID": "ebd2350b-ed2a-4cc8-a5bc-a6208e09c089", "OutageTypeColor": "#a8a800", "OutageStatusColor": null, "IncidentId": "294057"}}, {"type": "Feature", "id": 42271199, "geometry": {"type": "Point", "coordinates": [-122.83573, 38.39303]}, "properties": {"OBJECTID": 42271199, "UtilityCompany": "PGE", "StartDate": 1782832094000, "EstimatedRestoreDate": 1782860400000, "Cause": "PLNND SHUTDOWN", "ImpactedCustomers": 10, "County": "SONOMA", "OutageStatus": "Active", "OutageType": "Planned", "GlobalID": "dc314576-b435-4be6-bcff-ad81eeaa83ce", "OutageTypeColor": "#a8a800", "OutageStatusColor": null, "IncidentId": "294065"}}, {"type": "Feature", "id": 42271200, "geometry": {"type": "Point", "coordinates": [-120.56074, 35.07351]}, "properties": {"OBJECTID": 42271200, "UtilityCompany": "PGE", "StartDate": 1782832180000, "EstimatedRestoreDate": 1782860400000, "Cause": "PLNND SHUTDOWN", "ImpactedCustomers": 3, "County": "SAN LUIS OBISPO", "OutageStatus": "Active", "OutageType": "Planned", "GlobalID": "1deee303-f807-4b29-ab87-f6ab376fb282", "OutageTypeColor": "#a8a800", "OutageStatusColor": null, "IncidentId": "294066"}}, {"type": "Feature", "id": 42271201, "geometry": {"type": "Point", "coordinates": [-122.64441, 38.24289]}, "properties": {"OBJECTID": 42271201, "UtilityCompany": "PGE", "StartDate": 1782833245000, "EstimatedRestoreDate": 1782853200000, "Cause": "PLNND SHUTDOWN", "ImpactedCustomers": 9, "County": "SONOMA", "OutageStatus": "Active", "OutageType": "Planned", "GlobalID": "8f5d541b-8d04-4cfa-990f-90c128eca98c", "OutageTypeColor": "#a8a800", "OutageStatusColor": null, "IncidentId": "294086"}}, {"type": "Feature", "id": 42271202, "geometry": {"type": "Point", "coordinates": [-121.31743, 38.75178]}, "properties": {"OBJECTID": 42271202, "UtilityCompany": "PGE", "StartDate": 1782832500000, "EstimatedRestoreDate": 1782860400000, "Cause": "PLNND SHUTDOWN", "ImpactedCustomers": 129, "County": "PLACER", "OutageStatus": "Active", "OutageType": "Planned", "GlobalID": "20b0b221-765d-4a0c-b5c5-f5648839e30d", "OutageTypeColor": "#a8a800", "OutageStatusColor": null, "IncidentId": "294087"}}, {"type": "Feature", "id": 42271203, "geometry": {"type": "Point", "coordinates": [-120.42633, 34.85976]}, "properties": {"OBJECTID": 42271203, "UtilityCompany": "PGE", "StartDate": 1782833660000, "EstimatedRestoreDate": 1782864900000, "Cause": "REPLCE SRVC", "ImpactedCustomers": 1, "County": "SANTA BARBARA", "OutageStatus": "Active", "OutageType": "Not Planned", "GlobalID": "4c917e1f-82c3-4982-889a-672febfe2cc1", "OutageTypeColor": "#ffaa00", "OutageStatusColor": null, "IncidentId": "294088"}}, {"type": "Feature", "id": 42271204, "geometry": {"type": "Point", "coordinates": [-121.31858, 38.75147]}, "properties": {"OBJECTID": 42271204, "UtilityCompany": "PGE", "StartDate": 1782833280000, "EstimatedRestoreDate": 1782860400000, "Cause": "PLNND SHUTDOWN", "ImpactedCustomers": 3, "County": "PLACER", "OutageStatus": "Active", "OutageType": "Planned", "GlobalID": "5539ed2b-e909-46be-b968-2e2c4eca6019", "OutageTypeColor": "#a8a800", "OutageStatusColor": null, "IncidentId": "294091"}}, {"type": "Feature", "id": 42271205, "geometry": {"type": "Point", "coordinates": [-120.37957, 36.75889]}, "properties": {"OBJECTID": 42271205, "UtilityCompany": "PGE", "StartDate": 1782833460000, "EstimatedRestoreDate": 1782867600000, "Cause": "PLNND SHUTDOWN", "ImpactedCustomers": 16, "County": "FRESNO", "OutageStatus": "Active", "OutageType": "Planned", "GlobalID": "fb256bb1-9ab3-494a-8580-4ee634ef4e4f", "OutageTypeColor": "#a8a800", "OutageStatusColor": null, "IncidentId": "294092"}}, {"type": "Feature", "id": 42271206, "geometry": {"type": "Point", "coordinates": [-121.83667, 39.71811]}, "properties": {"OBJECTID": 42271206, "UtilityCompany": "PGE", "StartDate": 1782833400000, "EstimatedRestoreDate": 1782862200000, "Cause": "PLNND SHUTDOWN", "ImpactedCustomers": 73, "County": "BUTTE", "OutageStatus": "Active", "OutageType": "Planned", "GlobalID": "c147556a-aac8-495e-b882-1952d37c2a97", "OutageTypeColor": "#a8a800", "OutageStatusColor": null, "IncidentId": "294093"}}, {"type": "Feature", "id": 42271207, "geometry": {"type": "Point", "coordinates": [-120.80223, 37.81636]}, "properties": {"OBJECTID": 42271207, "UtilityCompany": "PGE", "StartDate": 1782834188000, "EstimatedRestoreDate": 1782865200000, "Cause": "BRKN POLE EQUIPMNT", "ImpactedCustomers": 1, "County": "STANISLAUS", "OutageStatus": "Active", "OutageType": "Not Planned", "GlobalID": "dec9b4ac-b973-4ce4-a679-9817f190d3d9", "OutageTypeColor": "#ffaa00", "OutageStatusColor": null, "IncidentId": "294106"}}, {"type": "Feature", "id": 42271208, "geometry": {"type": "Point", "coordinates": [-119.73586, 36.34238]}, "properties": {"OBJECTID": 42271208, "UtilityCompany": "PGE", "StartDate": 1782834253000, "EstimatedRestoreDate": 1782870300000, "Cause": "EMERG REPAIRS", "ImpactedCustomers": 3, "County": "KINGS", "OutageStatus": "Active", "OutageType": "Not Planned", "GlobalID": "5052b0e4-b807-4256-8c1e-4e01cdb7b433", "OutageTypeColor": "#ffaa00", "OutageStatusColor": null, "IncidentId": "294109"}}, {"type": "Feature", "id": 42271209, "geometry": {"type": "Point", "coordinates": [-121.32913, 36.43848]}, "properties": {"OBJECTID": 42271209, "UtilityCompany": "PGE", "StartDate": 1782834360000, "EstimatedRestoreDate": 1782871200000, "Cause": "PLNND SHUTDOWN", "ImpactedCustomers": 43, "County": "MONTEREY", "OutageStatus": "Active", "OutageType": "Planned", "GlobalID": "80ba82c9-0acb-4d47-84d8-148fef935c02", "OutageTypeColor": "#a8a800", "OutageStatusColor": null, "IncidentId": "294124"}}, {"type": "Feature", "id": 42271210, "geometry": {"type": "Point", "coordinates": [-121.59873, 38.16909]}, "properties": {"OBJECTID": 42271210, "UtilityCompany": "PGE", "StartDate": 1782834420000, "EstimatedRestoreDate": 1782860400000, "Cause": "PLNND SHUTDOWN", "ImpactedCustomers": 6, "County": "SACRAMENTO", "OutageStatus": "Active", "OutageType": "Planned", "GlobalID": "35a8df91-5ff4-4014-aa63-af4f8238af79", "OutageTypeColor": "#a8a800", "OutageStatusColor": null, "IncidentId": "294125"}}, {"type": "Feature", "id": 42271211, "geometry": {"type": "Point", "coordinates": [-121.90646, 37.10271]}, "properties": {"OBJECTID": 42271211, "UtilityCompany": "PGE", "StartDate": 1782834445000, "EstimatedRestoreDate": 1782860400000, "Cause": "PLNND SHUTDOWN", "ImpactedCustomers": 5, "County": "SANTA CRUZ", "OutageStatus": "Active", "OutageType": "Planned", "GlobalID": "69d411b4-7588-45e9-9cb5-b4bf4166030a", "OutageTypeColor": "#a8a800", "OutageStatusColor": null, "IncidentId": "294129"}}, {"type": "Feature", "id": 42271212, "geometry": {"type": "Point", "coordinates": [-121.86922, 38.81114]}, "properties": {"OBJECTID": 42271212, "UtilityCompany": "PGE", "StartDate": 1782834724000, "EstimatedRestoreDate": 1782849600000, "Cause": "PLNND SHUTDOWN", "ImpactedCustomers": 1, "County": "YOLO", "OutageStatus": "Active", "OutageType": "Planned", "GlobalID": "a0dd21f6-c032-4895-9cd7-16e19fa18033", "OutageTypeColor": "#a8a800", "OutageStatusColor": null, "IncidentId": "294135"}}, {"type": "Feature", "id": 42271213, "geometry": {"type": "Point", "coordinates": [-121.9501, 37.29371]}, "properties": {"OBJECTID": 42271213, "UtilityCompany": "PGE", "StartDate": 1782835086000, "EstimatedRestoreDate": 1782867600000, "Cause": "PLNND SHUTDOWN", "ImpactedCustomers": 2, "County": "SANTA CLARA", "OutageStatus": "Active", "OutageType": "Planned", "GlobalID": "1b6fd8b1-6c42-400e-af57-ed800952a4fa", "OutageTypeColor": "#a8a800", "OutageStatusColor": null, "IncidentId": "294137"}}, {"type": "Feature", "id": 42271214, "geometry": {"type": "Point", "coordinates": [-122.05756, 37.33093]}, "properties": {"OBJECTID": 42271214, "UtilityCompany": "PGE", "StartDate": 1782835271000, "EstimatedRestoreDate": 1782871200000, "Cause": "PATROLLING", "ImpactedCustomers": 1, "County": "SANTA CLARA", "OutageStatus": "Active", "OutageType": "Not Planned", "GlobalID": "e45c4644-eb99-4402-b2a8-bed63c7a97a6", "OutageTypeColor": "#ffaa00", "OutageStatusColor": null, "IncidentId": "294142"}}, {"type": "Feature", "id": 42271215, "geometry": {"type": "Point", "coordinates": [-121.36649, 39.29233]}, "properties": {"OBJECTID": 42271215, "UtilityCompany": "PGE", "StartDate": 1782835260000, "EstimatedRestoreDate": 1782862200000, "Cause": "PLNND SHUTDOWN", "ImpactedCustomers": 2, "County": "YUBA", "OutageStatus": "Active", "OutageType": "Planned", "GlobalID": "129690b0-3551-4da1-8787-7983a8004c8b", "OutageTypeColor": "#a8a800", "OutageStatusColor": null, "IncidentId": "294145"}}, {"type": "Feature", "id": 42271216, "geometry": {"type": "Point", "coordinates": [-121.83065, 36.95083]}, "properties": {"OBJECTID": 42271216, "UtilityCompany": "PGE", "StartDate": 1782835260000, "EstimatedRestoreDate": 1782862200000, "Cause": "PLNND SHUTDOWN", "ImpactedCustomers": 2, "County": "SANTA CRUZ", "OutageStatus": "Active", "OutageType": "Planned", "GlobalID": "6c12a42a-f856-4e51-ba62-db3ffcd4a475", "OutageTypeColor": "#a8a800", "OutageStatusColor": null, "IncidentId": "294146"}}, {"type": "Feature", "id": 42271217, "geometry": {"type": "Point", "coordinates": [-119.69043, 36.99086]}, "properties": {"OBJECTID": 42271217, "UtilityCompany": "PGE", "StartDate": 1782835382000, "EstimatedRestoreDate": 1782862200000, "Cause": "EMERG REPAIRS", "ImpactedCustomers": 2, "County": "FRESNO", "OutageStatus": "Active", "OutageType": "Not Planned", "GlobalID": "afd4288c-0217-4336-a50a-af0d2d01f6ea", "OutageTypeColor": "#ffaa00", "OutageStatusColor": null, "IncidentId": "294149"}}, {"type": "Feature", "id": 42271218, "geometry": {"type": "Point", "coordinates": [-122.34071, 37.5813]}, "properties": {"OBJECTID": 42271218, "UtilityCompany": "PGE", "StartDate": 1782835500000, "EstimatedRestoreDate": 1782864000000, "Cause": "PLNND SHUTDOWN", "ImpactedCustomers": 39, "County": "SAN MATEO", "OutageStatus": "Active", "OutageType": "Planned", "GlobalID": "8bc87d7a-75f1-42b8-810b-5b4f809112b5", "OutageTypeColor": "#a8a800", "OutageStatusColor": null, "IncidentId": "294156"}}, {"type": "Feature", "id": 42271219, "geometry": {"type": "Point", "coordinates": [-122.30784, 37.90881]}, "properties": {"OBJECTID": 42271219, "UtilityCompany": "PGE", "StartDate": 1782835402000, "EstimatedRestoreDate": 1782860400000, "Cause": "PLNND SHUTDOWN", "ImpactedCustomers": 8, "County": "CONTRA COSTA", "OutageStatus": "Active", "OutageType": "Planned", "GlobalID": "14942399-a805-46d3-9709-1ad0d53baed3", "OutageTypeColor": "#a8a800", "OutageStatusColor": null, "IncidentId": "294165"}}, {"type": "Feature", "id": 42271220, "geometry": {"type": "Point", "coordinates": [-122.51308, 38.10482]}, "properties": {"OBJECTID": 42271220, "UtilityCompany": "PGE", "StartDate": 1782835775000, "EstimatedRestoreDate": 1782871200000, "Cause": "THRD PARTY", "ImpactedCustomers": 34, "County": "MARIN", "OutageStatus": "Active", "OutageType": "Not Planned", "GlobalID": "31f9b614-54a5-439d-8187-2efd6986068b", "OutageTypeColor": "#ffaa00", "OutageStatusColor": null, "IncidentId": "294171"}}, {"type": "Feature", "id": 42271221, "geometry": {"type": "Point", "coordinates": [-121.90926, 38.79724]}, "properties": {"OBJECTID": 42271221, "UtilityCompany": "PGE", "StartDate": 1782835477000, "EstimatedRestoreDate": 1782860400000, "Cause": "PLNND SHUTDOWN", "ImpactedCustomers": 1, "County": "YOLO", "OutageStatus": "Active", "OutageType": "Planned", "GlobalID": "21f0f45a-d6ab-41e1-b1b6-51129bfb11b9", "OutageTypeColor": "#a8a800", "OutageStatusColor": null, "IncidentId": "294172"}}, {"type": "Feature", "id": 42271222, "geometry": {"type": "Point", "coordinates": [-119.8751, 36.77249]}, "properties": {"OBJECTID": 42271222, "UtilityCompany": "PGE", "StartDate": 1782835787000, "EstimatedRestoreDate": 1782874800000, "Cause": "PATROLLING", "ImpactedCustomers": 1, "County": "FRESNO", "OutageStatus": "Active", "OutageType": "Not Planned", "GlobalID": "941853fb-ac8e-4243-86a2-136830c4c2c5", "OutageTypeColor": "#ffaa00", "OutageStatusColor": null, "IncidentId": "294173"}}, {"type": "Feature", "id": 42271223, "geometry": {"type": "Point", "coordinates": [-121.66099, 36.69845]}, "properties": {"OBJECTID": 42271223, "UtilityCompany": "PGE", "StartDate": 1782835680000, "EstimatedRestoreDate": 1782867600000, "Cause": "PLNND SHUTDOWN", "ImpactedCustomers": 29, "County": "MONTEREY", "OutageStatus": "Active", "OutageType": "Planned", "GlobalID": "53373cbf-6e83-4641-8333-c9eedeee126a", "OutageTypeColor": "#a8a800", "OutageStatusColor": null, "IncidentId": "294175"}}, {"type": "Feature", "id": 42271224, "geometry": {"type": "Point", "coordinates": [-122.25059, 37.52549]}, "properties": {"OBJECTID": 42271224, "UtilityCompany": "PGE", "StartDate": 1782835380000, "EstimatedRestoreDate": 1782856800000, "Cause": "PLNND SHUTDOWN", "ImpactedCustomers": 15, "County": "SAN MATEO", "OutageStatus": "Active", "OutageType": "Planned", "GlobalID": "1d79a3e7-a412-4e53-8b29-fdbab527f881", "OutageTypeColor": "#a8a800", "OutageStatusColor": null, "IncidentId": "294191"}}, {"type": "Feature", "id": 42271225, "geometry": {"type": "Point", "coordinates": [-120.6585, 37.97428]}, "properties": {"OBJECTID": 42271225, "UtilityCompany": "PGE", "StartDate": 1782836220000, "EstimatedRestoreDate": 1782873000000, "Cause": "THRD PARTY", "ImpactedCustomers": 77, "County": "CALAVERAS", "OutageStatus": "Active", "OutageType": "Not Planned", "GlobalID": "43924ca3-cfd8-410e-a9cf-171a4e704428", "OutageTypeColor": "#ffaa00", "OutageStatusColor": null, "IncidentId": "294203"}}, {"type": "Feature", "id": 42271226, "geometry": {"type": "Point", "coordinates": [-120.39876, 34.85998]}, "properties": {"OBJECTID": 42271226, "UtilityCompany": "PGE", "StartDate": 1782836915000, "EstimatedRestoreDate": 1782867600000, "Cause": null, "ImpactedCustomers": 1, "County": "SANTA BARBARA", "OutageStatus": "Active", "OutageType": "Not Planned", "GlobalID": "139efe6d-b3e5-4acb-b37e-888b180606fe", "OutageTypeColor": "#ffaa00", "OutageStatusColor": null, "IncidentId": "294216"}}, {"type": "Feature", "id": 42271227, "geometry": {"type": "Point", "coordinates": [-120.9935, 39.23978]}, "properties": {"OBJECTID": 42271227, "UtilityCompany": "PGE", "StartDate": 1782837418000, "EstimatedRestoreDate": 1782848700000, "Cause": "FOREIGN OBJ", "ImpactedCustomers": 1, "County": "NEVADA", "OutageStatus": "Active", "OutageType": "Not Planned", "GlobalID": "951d73b6-bd5c-446b-9021-6e5b620dfef8", "OutageTypeColor": "#ffaa00", "OutageStatusColor": null, "IncidentId": "294233"}}, {"type": "Feature", "id": 42271228, "geometry": {"type": "Point", "coordinates": [-121.81177, 36.45546]}, "properties": {"OBJECTID": 42271228, "UtilityCompany": "PGE", "StartDate": 1782838232000, "EstimatedRestoreDate": 1782864000000, "Cause": "PLNND SHUTDOWN", "ImpactedCustomers": 12, "County": "MONTEREY", "OutageStatus": "Active", "OutageType": "Planned", "GlobalID": "e0549103-50b2-42a4-99aa-24ed6fa4a045", "OutageTypeColor": "#a8a800", "OutageStatusColor": null, "IncidentId": "294271"}}, {"type": "Feature", "id": 42271229, "geometry": {"type": "Point", "coordinates": [-122.44255, 37.48486]}, "properties": {"OBJECTID": 42271229, "UtilityCompany": "PGE", "StartDate": 1782838339000, "EstimatedRestoreDate": 1782861300000, "Cause": "DAMGE UG CABLE", "ImpactedCustomers": 1, "County": "SAN MATEO", "OutageStatus": "Active", "OutageType": "Not Planned", "GlobalID": "c5e4986f-67f9-4253-946f-59923e247727", "OutageTypeColor": "#ffaa00", "OutageStatusColor": null, "IncidentId": "294273"}}, {"type": "Feature", "id": 42271230, "geometry": {"type": "Point", "coordinates": [-119.20181, 35.41437]}, "properties": {"OBJECTID": 42271230, "UtilityCompany": "PGE", "StartDate": 1782838758000, "EstimatedRestoreDate": 1782865800000, "Cause": "EMERG REPAIRS", "ImpactedCustomers": 1, "County": "KERN", "OutageStatus": "Active", "OutageType": "Not Planned", "GlobalID": "207b3c4a-3f28-43ca-91a7-ef295dde7544", "OutageTypeColor": "#ffaa00", "OutageStatusColor": null, "IncidentId": "294279"}}, {"type": "Feature", "id": 42271231, "geometry": {"type": "Point", "coordinates": [-119.20452, 35.34617]}, "properties": {"OBJECTID": 42271231, "UtilityCompany": "PGE", "StartDate": 1782840012000, "EstimatedRestoreDate": 1782861300000, "Cause": "EMERG REPAIRS", "ImpactedCustomers": 1, "County": "KERN", "OutageStatus": "Active", "OutageType": "Not Planned", "GlobalID": "93309864-e7b6-4b10-83b9-2a55766a09fc", "OutageTypeColor": "#ffaa00", "OutageStatusColor": null, "IncidentId": "294290"}}, {"type": "Feature", "id": 42271232, "geometry": {"type": "Point", "coordinates": [-122.74429, 38.45328]}, "properties": {"OBJECTID": 42271232, "UtilityCompany": "PGE", "StartDate": 1782840420000, "EstimatedRestoreDate": 1782867600000, "Cause": "THRD PARTY", "ImpactedCustomers": 291, "County": "SONOMA", "OutageStatus": "Active", "OutageType": "Not Planned", "GlobalID": "8c9ad554-f0b8-4fce-912c-52f570dbda1d", "OutageTypeColor": "#ffaa00", "OutageStatusColor": null, "IncidentId": "294303"}}, {"type": "Feature", "id": 42271233, "geometry": {"type": "Point", "coordinates": [-119.38043, 36.54821]}, "properties": {"OBJECTID": 42271233, "UtilityCompany": "PGE", "StartDate": 1782841439000, "EstimatedRestoreDate": 1782869400000, "Cause": null, "ImpactedCustomers": 1, "County": "TULARE", "OutageStatus": "Active", "OutageType": "Not Planned", "GlobalID": "a5e61446-27f4-4689-aab0-b8f21855140a", "OutageTypeColor": "#ffaa00", "OutageStatusColor": null, "IncidentId": "294309"}}, {"type": "Feature", "id": 42271234, "geometry": {"type": "Point", "coordinates": [-122.50581, 38.53451]}, "properties": {"OBJECTID": 42271234, "UtilityCompany": "PGE", "StartDate": 1782842257000, "EstimatedRestoreDate": 1782861300000, "Cause": "PATROLLING", "ImpactedCustomers": 1, "County": "NAPA", "OutageStatus": "Active", "OutageType": "Not Planned", "GlobalID": "a1ef29c8-7dd1-4b8a-af0c-5de28f2cdd1d", "OutageTypeColor": "#ffaa00", "OutageStatusColor": null, "IncidentId": "294324"}}, {"type": "Feature", "id": 42271235, "geometry": {"type": "Point", "coordinates": [-122.76089, 38.5091]}, "properties": {"OBJECTID": 42271235, "UtilityCompany": "PGE", "StartDate": 1782844606000, "EstimatedRestoreDate": 1782856800000, "Cause": null, "ImpactedCustomers": 60, "County": "SONOMA", "OutageStatus": "Active", "OutageType": "Not Planned", "GlobalID": "43b23e6b-f998-4ca7-9c66-a6141cfc8f24", "OutageTypeColor": "#ffaa00", "OutageStatusColor": null, "IncidentId": "294358"}}, {"type": "Feature", "id": 42271236, "geometry": {"type": "Point", "coordinates": [-119.80091, 36.75436]}, "properties": {"OBJECTID": 42271236, "UtilityCompany": "PGE", "StartDate": 1782845429000, "EstimatedRestoreDate": 1782872100000, "Cause": null, "ImpactedCustomers": 1, "County": "FRESNO", "OutageStatus": "Active", "OutageType": "Not Planned", "GlobalID": "3d1d0ec8-ed7f-45e3-b625-c1a512f9a9a8", "OutageTypeColor": "#ffaa00", "OutageStatusColor": null, "IncidentId": "294367"}}, {"type": "Feature", "id": 42271237, "geometry": {"type": "Point", "coordinates": [-121.81781, 37.31712]}, "properties": {"OBJECTID": 42271237, "UtilityCompany": "PGE", "StartDate": 1782846189000, "EstimatedRestoreDate": 1782868500000, "Cause": null, "ImpactedCustomers": 1, "County": "SANTA CLARA", "OutageStatus": "Active", "OutageType": "Not Planned", "GlobalID": "3662e94d-fe05-4ae9-ad39-9fe743abf761", "OutageTypeColor": "#ffaa00", "OutageStatusColor": null, "IncidentId": "294375"}}, {"type": "Feature", "id": 42271238, "geometry": {"type": "Point", "coordinates": [-122.47537, 38.53483]}, "properties": {"OBJECTID": 42271238, "UtilityCompany": "PGE", "StartDate": 1782846240000, "EstimatedRestoreDate": 1782882900000, "Cause": "PATROLLING", "ImpactedCustomers": 1407, "County": "NAPA", "OutageStatus": "Active", "OutageType": "Not Planned", "GlobalID": "529291bd-2573-4eb6-84be-05d6584d318d", "OutageTypeColor": "#ffaa00", "OutageStatusColor": null, "IncidentId": "294386"}}, {"type": "Feature", "id": 42271239, "geometry": {"type": "Point", "coordinates": [-122.47599, 38.53604]}, "properties": {"OBJECTID": 42271239, "UtilityCompany": "PGE", "StartDate": 1782846610000, "EstimatedRestoreDate": 1782880200000, "Cause": null, "ImpactedCustomers": 1, "County": "NAPA", "OutageStatus": "Active", "OutageType": "Not Planned", "GlobalID": "b9bbd72b-d951-48b7-b723-f91a1443b835", "OutageTypeColor": "#ffaa00", "OutageStatusColor": null, "IncidentId": "294391"}}, {"type": "Feature", "id": 42271240, "geometry": {"type": "Point", "coordinates": [-120.77682, 39.5538]}, "properties": {"OBJECTID": 42271240, "UtilityCompany": "PGE", "StartDate": 1782846332000, "EstimatedRestoreDate": 1782869400000, "Cause": "EMERG REPAIRS", "ImpactedCustomers": 34, "County": "SIERRA", "OutageStatus": "Active", "OutageType": "Not Planned", "GlobalID": "8bfd9d08-6f8b-4f86-8608-fcd3f78507e7", "OutageTypeColor": "#ffaa00", "OutageStatusColor": null, "IncidentId": "294392"}}, {"type": "Feature", "id": 42271241, "geometry": {"type": "Point", "coordinates": [-120.42638, 37.94269]}, "properties": {"OBJECTID": 42271241, "UtilityCompany": "PGE", "StartDate": 1782847144000, "EstimatedRestoreDate": 1782860400000, "Cause": "PATROLLING", "ImpactedCustomers": 1, "County": "TUOLUMNE", "OutageStatus": "Active", "OutageType": "Not Planned", "GlobalID": "2a6a2320-9fae-40f2-9712-ea4c9bf1e741", "OutageTypeColor": "#ffaa00", "OutageStatusColor": null, "IncidentId": "294401"}}, {"type": "Feature", "id": 42271242, "geometry": {"type": "Point", "coordinates": [-121.08493, 35.55136]}, "properties": {"OBJECTID": 42271242, "UtilityCompany": "PGE", "StartDate": 1782847564000, "EstimatedRestoreDate": 1782876600000, "Cause": null, "ImpactedCustomers": 1, "County": "SAN LUIS OBISPO", "OutageStatus": "Active", "OutageType": "Not Planned", "GlobalID": "32f0040b-d9de-44ac-9b77-1e2a39691fa9", "OutageTypeColor": "#ffaa00", "OutageStatusColor": null, "IncidentId": "294408"}}, {"type": "Feature", "id": 42271243, "geometry": {"type": "Point", "coordinates": [-121.10088, 35.56972]}, "properties": {"OBJECTID": 42271243, "UtilityCompany": "PGE", "StartDate": 1782847733000, "EstimatedRestoreDate": 1782880200000, "Cause": null, "ImpactedCustomers": 1, "County": "SAN LUIS OBISPO", "OutageStatus": "Active", "OutageType": "Not Planned", "GlobalID": "82d28097-b3fd-49e0-a0c2-d23025de1e95", "OutageTypeColor": "#ffaa00", "OutageStatusColor": null, "IncidentId": "294410"}}, {"type": "Feature", "id": 42271244, "geometry": {"type": "Point", "coordinates": [-123.31493, 38.67628]}, "properties": {"OBJECTID": 42271244, "UtilityCompany": "PGE", "StartDate": 1782848940000, "EstimatedRestoreDate": 1782882000000, "Cause": "PATROLLING", "ImpactedCustomers": 57, "County": "SONOMA", "OutageStatus": "Active", "OutageType": "Not Planned", "GlobalID": "0f7faf53-061b-4dfe-82bb-bfa3022768b4", "OutageTypeColor": "#ffaa00", "OutageStatusColor": null, "IncidentId": "294419"}}, {"type": "Feature", "id": 42271245, "geometry": {"type": "Point", "coordinates": [-121.27138, 38.18188]}, "properties": {"OBJECTID": 42271245, "UtilityCompany": "PGE", "StartDate": 1782849507000, "EstimatedRestoreDate": 1782880200000, "Cause": "PATROLLING", "ImpactedCustomers": 1, "County": "SAN JOAQUIN", "OutageStatus": "Active", "OutageType": "Not Planned", "GlobalID": "7a5ba950-8949-40e4-8a2f-28242becce53", "OutageTypeColor": "#ffaa00", "OutageStatusColor": null, "IncidentId": "294424"}}, {"type": "Feature", "id": 42271246, "geometry": {"type": "Point", "coordinates": [-119.6007, 36.65606]}, "properties": {"OBJECTID": 42271246, "UtilityCompany": "PGE", "StartDate": 1782850146000, "EstimatedRestoreDate": 1782867600000, "Cause": null, "ImpactedCustomers": 1, "County": "FRESNO", "OutageStatus": "Active", "OutageType": "Not Planned", "GlobalID": "38e8ec0b-492f-4475-9b1f-5bb555a82cb3", "OutageTypeColor": "#ffaa00", "OutageStatusColor": null, "IncidentId": "294434"}}, {"type": "Feature", "id": 42271247, "geometry": {"type": "Point", "coordinates": [-120.03807, 38.83213]}, "properties": {"OBJECTID": 42271247, "UtilityCompany": "PGE", "StartDate": 1782850359000, "EstimatedRestoreDate": 1782874800000, "Cause": null, "ImpactedCustomers": 1, "County": "EL DORADO", "OutageStatus": "Active", "OutageType": "Not Planned", "GlobalID": "f54334ae-8017-43ab-8845-28113bf9df07", "OutageTypeColor": "#ffaa00", "OutageStatusColor": null, "IncidentId": "294437"}}, {"type": "Feature", "id": 42271248, "geometry": {"type": "Point", "coordinates": [-121.7771, 37.65463]}, "properties": {"OBJECTID": 42271248, "UtilityCompany": "PGE", "StartDate": 1782850866000, "EstimatedRestoreDate": 1782873900000, "Cause": null, "ImpactedCustomers": 1, "County": "ALAMEDA", "OutageStatus": "Active", "OutageType": "Not Planned", "GlobalID": "567e718f-32e0-408e-9d90-3bb0edd95ee7", "OutageTypeColor": "#ffaa00", "OutageStatusColor": null, "IncidentId": "294442"}}, {"type": "Feature", "id": 42271249, "geometry": {"type": "Point", "coordinates": [-121.81855, 37.24563]}, "properties": {"OBJECTID": 42271249, "UtilityCompany": "PGE", "StartDate": 1782851093000, "EstimatedRestoreDate": 1782886500000, "Cause": null, "ImpactedCustomers": 1, "County": "SANTA CLARA", "OutageStatus": "Active", "OutageType": "Not Planned", "GlobalID": "f3633475-e6ee-4e84-a2d7-de66936c592d", "OutageTypeColor": "#ffaa00", "OutageStatusColor": null, "IncidentId": "294443"}}, {"type": "Feature", "id": 42271250, "geometry": {"type": "Point", "coordinates": [-122.56902, 37.96268]}, "properties": {"OBJECTID": 42271250, "UtilityCompany": "PGE", "StartDate": 1782851160000, "EstimatedRestoreDate": 1782863100000, "Cause": "TREE CONTACT", "ImpactedCustomers": 51, "County": "MARIN", "OutageStatus": "Active", "OutageType": "Not Planned", "GlobalID": "9db65bd4-7721-495b-894a-471868df441b", "OutageTypeColor": "#ffaa00", "OutageStatusColor": null, "IncidentId": "294447"}}, {"type": "Feature", "id": 42271251, "geometry": {"type": "Point", "coordinates": [-122.21483, 38.10506]}, "properties": {"OBJECTID": 42271251, "UtilityCompany": "PGE", "StartDate": 1782851333000, "EstimatedRestoreDate": 1782864900000, "Cause": null, "ImpactedCustomers": 1, "County": "SOLANO", "OutageStatus": "Active", "OutageType": "Not Planned", "GlobalID": "bb55ecad-311e-43a1-8d3d-3376e29e0de3", "OutageTypeColor": "#ffaa00", "OutageStatusColor": null, "IncidentId": "294448"}}, {"type": "Feature", "id": 42271252, "geometry": {"type": "Point", "coordinates": [-121.86816, 37.3172]}, "properties": {"OBJECTID": 42271252, "UtilityCompany": "PGE", "StartDate": 1782851415000, "EstimatedRestoreDate": 1782888300000, "Cause": null, "ImpactedCustomers": 1, "County": "SANTA CLARA", "OutageStatus": "Active", "OutageType": "Not Planned", "GlobalID": "f4937ef6-517f-4f2b-b7ba-6a25f0c02545", "OutageTypeColor": "#ffaa00", "OutageStatusColor": null, "IncidentId": "294449"}}, {"type": "Feature", "id": 42271253, "geometry": {"type": "Point", "coordinates": [-119.79171, 36.59676]}, "properties": {"OBJECTID": 42271253, "UtilityCompany": "PGE", "StartDate": 1782851724000, "EstimatedRestoreDate": 1782878400000, "Cause": "FOREIGN OBJ", "ImpactedCustomers": 2, "County": "FRESNO", "OutageStatus": "Active", "OutageType": "Not Planned", "GlobalID": "98c168a5-6791-407e-b446-cb76ccb5a4fd", "OutageTypeColor": "#ffaa00", "OutageStatusColor": null, "IncidentId": "294453"}}, {"type": "Feature", "id": 42271254, "geometry": {"type": "Point", "coordinates": [-122.31843, 38.00599]}, "properties": {"OBJECTID": 42271254, "UtilityCompany": "PGE", "StartDate": 1782851820000, "EstimatedRestoreDate": 1782879300000, "Cause": "REPLCE TXFMR", "ImpactedCustomers": 1, "County": "CONTRA COSTA", "OutageStatus": "Active", "OutageType": "Not Planned", "GlobalID": "4abd1129-ef5c-4a43-8230-4e623ed9fc64", "OutageTypeColor": "#ffaa00", "OutageStatusColor": null, "IncidentId": "294455"}}, {"type": "Feature", "id": 42271255, "geometry": {"type": "Point", "coordinates": [-118.99414, 35.37203]}, "properties": {"OBJECTID": 42271255, "UtilityCompany": "PGE", "StartDate": 1782851945000, "EstimatedRestoreDate": 1782864900000, "Cause": null, "ImpactedCustomers": 1, "County": "KERN", "OutageStatus": "Active", "OutageType": "Not Planned", "GlobalID": "11515d77-12cc-46c0-ab77-763b4ad1c77d", "OutageTypeColor": "#ffaa00", "OutageStatusColor": null, "IncidentId": "294458"}}, {"type": "Feature", "id": 42271256, "geometry": {"type": "Point", "coordinates": [-118.99853, 35.37194]}, "properties": {"OBJECTID": 42271256, "UtilityCompany": "PGE", "StartDate": 1782851950000, "EstimatedRestoreDate": 1782864900000, "Cause": null, "ImpactedCustomers": 1, "County": "KERN", "OutageStatus": "Active", "OutageType": "Not Planned", "GlobalID": "5ee5f6d3-ff09-4717-b49d-1881fc732e06", "OutageTypeColor": "#ffaa00", "OutageStatusColor": null, "IncidentId": "294459"}}, {"type": "Feature", "id": 42271257, "geometry": {"type": "Point", "coordinates": [-122.31275, 38.38956]}, "properties": {"OBJECTID": 42271257, "UtilityCompany": "PGE", "StartDate": 1782852561000, "EstimatedRestoreDate": 1782874800000, "Cause": "PATROLLING", "ImpactedCustomers": 1, "County": "NAPA", "OutageStatus": "Active", "OutageType": "Not Planned", "GlobalID": "ef3f8e20-b98c-4521-98e7-a70d8f42b0ab", "OutageTypeColor": "#ffaa00", "OutageStatusColor": null, "IncidentId": "294466"}}, {"type": "Feature", "id": 42271258, "geometry": {"type": "Point", "coordinates": [-122.45167, 37.65477]}, "properties": {"OBJECTID": 42271258, "UtilityCompany": "PGE", "StartDate": 1782852659000, "EstimatedRestoreDate": 1782884700000, "Cause": "TREE CONTACT", "ImpactedCustomers": 36, "County": "SAN MATEO", "OutageStatus": "Active", "OutageType": "Not Planned", "GlobalID": "85cb02b2-0ec7-4999-9f96-e4243680e780", "OutageTypeColor": "#ffaa00", "OutageStatusColor": null, "IncidentId": "294468"}}, {"type": "Feature", "id": 42271259, "geometry": {"type": "Point", "coordinates": [-121.89612, 39.74859]}, "properties": {"OBJECTID": 42271259, "UtilityCompany": "PGE", "StartDate": 1782852779000, "EstimatedRestoreDate": 1782875700000, "Cause": "EMERG REPAIRS", "ImpactedCustomers": 23, "County": "BUTTE", "OutageStatus": "Active", "OutageType": "Not Planned", "GlobalID": "724fe29a-b9c4-4785-91de-40585d1422ee", "OutageTypeColor": "#ffaa00", "OutageStatusColor": null, "IncidentId": "294472"}}, {"type": "Feature", "id": 42271260, "geometry": {"type": "Point", "coordinates": [-122.22426, 38.10469]}, "properties": {"OBJECTID": 42271260, "UtilityCompany": "PGE", "StartDate": 1782852803000, "EstimatedRestoreDate": 1782880200000, "Cause": "REPLCE SRVC", "ImpactedCustomers": 1, "County": "SOLANO", "OutageStatus": "Active", "OutageType": "Not Planned", "GlobalID": "09646ba7-f2c6-4d17-82d1-4de3fa3bb631", "OutageTypeColor": "#ffaa00", "OutageStatusColor": null, "IncidentId": "294474"}}, {"type": "Feature", "id": 42271261, "geometry": {"type": "Point", "coordinates": [-122.28637, 37.89006]}, "properties": {"OBJECTID": 42271261, "UtilityCompany": "PGE", "StartDate": 1782852820000, "EstimatedRestoreDate": 1782866700000, "Cause": "PATROLLING", "ImpactedCustomers": 12, "County": "ALAMEDA", "OutageStatus": "Active", "OutageType": "Not Planned", "GlobalID": "b751e25d-46f1-48c9-89c1-0985d09a16ea", "OutageTypeColor": "#ffaa00", "OutageStatusColor": null, "IncidentId": "294475"}}, {"type": "Feature", "id": 42271262, "geometry": {"type": "Point", "coordinates": [-121.14843, 36.1888]}, "properties": {"OBJECTID": 42271262, "UtilityCompany": "PGE", "StartDate": 1782853332000, "EstimatedRestoreDate": 1782866700000, "Cause": null, "ImpactedCustomers": 1, "County": "MONTEREY", "OutageStatus": "Active", "OutageType": "Not Planned", "GlobalID": "0fce663a-8539-41b4-8a31-1852d780e14e", "OutageTypeColor": "#ffaa00", "OutageStatusColor": null, "IncidentId": "294477"}}, {"type": "Feature", "id": 42271263, "geometry": {"type": "Point", "coordinates": [-120.46831, 37.70975]}, "properties": {"OBJECTID": 42271263, "UtilityCompany": "PGE", "StartDate": 1782853349000, "EstimatedRestoreDate": 1782875700000, "Cause": null, "ImpactedCustomers": 1, "County": "TUOLUMNE", "OutageStatus": "Active", "OutageType": "Not Planned", "GlobalID": "ce148add-8ce9-460f-8a30-91e7e3671379", "OutageTypeColor": "#ffaa00", "OutageStatusColor": null, "IncidentId": "294478"}}, {"type": "Feature", "id": 42271264, "geometry": {"type": "Point", "coordinates": [-122.02149, 37.37081]}, "properties": {"OBJECTID": 42271264, "UtilityCompany": "PGE", "StartDate": 1782853883000, "EstimatedRestoreDate": 1782866700000, "Cause": "PATROLLING", "ImpactedCustomers": 28, "County": "SANTA CLARA", "OutageStatus": "Active", "OutageType": "Not Planned", "GlobalID": "160a4a54-e6a6-4d34-8fe6-b5a23227edc8", "OutageTypeColor": "#ffaa00", "OutageStatusColor": null, "IncidentId": "294483"}}, {"type": "Feature", "id": 42271265, "geometry": {"type": "Point", "coordinates": [-123.68225, 38.9708]}, "properties": {"OBJECTID": 42271265, "UtilityCompany": "PGE", "StartDate": 1782854050000, "EstimatedRestoreDate": 1782886500000, "Cause": "FOREIGN OBJ", "ImpactedCustomers": 1, "County": "MENDOCINO", "OutageStatus": "Active", "OutageType": "Not Planned", "GlobalID": "f60d6373-e6ac-47f5-aa8c-82a26b1b05a0", "OutageTypeColor": "#ffaa00", "OutageStatusColor": null, "IncidentId": "294485"}}, {"type": "Feature", "id": 42271266, "geometry": {"type": "Point", "coordinates": [-122.39636, 37.77425]}, "properties": {"OBJECTID": 42271266, "UtilityCompany": "PGE", "StartDate": 1782853540000, "EstimatedRestoreDate": 1782865800000, "Cause": "PATROLLING", "ImpactedCustomers": 194, "County": "SAN FRANCISCO", "OutageStatus": "Active", "OutageType": "Not Planned", "GlobalID": "d172447a-0fd6-4c0c-9500-a44f219224cf", "OutageTypeColor": "#ffaa00", "OutageStatusColor": null, "IncidentId": "294488"}}, {"type": "Feature", "id": 42271267, "geometry": {"type": "Point", "coordinates": [-122.39627, 37.77432]}, "properties": {"OBJECTID": 42271267, "UtilityCompany": "PGE", "StartDate": 1782852845000, "EstimatedRestoreDate": 1782865800000, "Cause": null, "ImpactedCustomers": 2, "County": "SAN FRANCISCO", "OutageStatus": "Active", "OutageType": "Not Planned", "GlobalID": "582656dc-38d0-4469-9dd2-2765f6065dc1", "OutageTypeColor": "#ffaa00", "OutageStatusColor": null, "IncidentId": "294489"}}, {"type": "Feature", "id": 42271268, "geometry": {"type": "Point", "coordinates": [-122.04315, 37.31211]}, "properties": {"OBJECTID": 42271268, "UtilityCompany": "PGE", "StartDate": 1782854253000, "EstimatedRestoreDate": 1782860400000, "Cause": "PLNND SHUTDOWN", "ImpactedCustomers": 1, "County": "SANTA CLARA", "OutageStatus": "Active", "OutageType": "Planned", "GlobalID": "fdc3f23b-8983-4c1e-a249-211e4d9c9638", "OutageTypeColor": "#a8a800", "OutageStatusColor": null, "IncidentId": "294491"}}, {"type": "Feature", "id": 42271269, "geometry": {"type": "Point", "coordinates": [-122.1308, 38.24835]}, "properties": {"OBJECTID": 42271269, "UtilityCompany": "PGE", "StartDate": 1782854305000, "EstimatedRestoreDate": 1782891000000, "Cause": null, "ImpactedCustomers": 40, "County": "SOLANO", "OutageStatus": "Active", "OutageType": "Not Planned", "GlobalID": "7b508135-7a38-41a0-a74c-59dfa2b81175", "OutageTypeColor": "#ffaa00", "OutageStatusColor": null, "IncidentId": "294492"}}, {"type": "Feature", "id": 42271270, "geometry": {"type": "Point", "coordinates": [-121.33766, 38.04092]}, "properties": {"OBJECTID": 42271270, "UtilityCompany": "PGE", "StartDate": 1782854601000, "EstimatedRestoreDate": 1782881100000, "Cause": null, "ImpactedCustomers": 1, "County": "SAN JOAQUIN", "OutageStatus": "Active", "OutageType": "Not Planned", "GlobalID": "d9c38e1a-1ace-4bc8-9eba-42fabdc4641e", "OutageTypeColor": "#ffaa00", "OutageStatusColor": null, "IncidentId": "294495"}}, {"type": "Feature", "id": 42271271, "geometry": {"type": "Point", "coordinates": [-121.27236, 37.77492]}, "properties": {"OBJECTID": 42271271, "UtilityCompany": "PGE", "StartDate": 1782854916000, "EstimatedRestoreDate": 1782873000000, "Cause": null, "ImpactedCustomers": 1, "County": "SAN JOAQUIN", "OutageStatus": "Active", "OutageType": "Not Planned", "GlobalID": "307b0277-daac-4b43-bda5-c19baa000f25", "OutageTypeColor": "#ffaa00", "OutageStatusColor": null, "IncidentId": "294496"}}, {"type": "Feature", "id": 42271272, "geometry": {"type": "Point", "coordinates": [-120.72244, 35.51323]}, "properties": {"OBJECTID": 42271272, "UtilityCompany": "PGE", "StartDate": 1782854972000, "EstimatedRestoreDate": 1782867600000, "Cause": "PATROLLING", "ImpactedCustomers": 1, "County": "SAN LUIS OBISPO", "OutageStatus": "Active", "OutageType": "Not Planned", "GlobalID": "824333d8-0716-48b6-aea5-9b3ce73548c6", "OutageTypeColor": "#ffaa00", "OutageStatusColor": null, "IncidentId": "294499"}}, {"type": "Feature", "id": 42271273, "geometry": {"type": "Point", "coordinates": [-121.60328, 36.77401]}, "properties": {"OBJECTID": 42271273, "UtilityCompany": "PGE", "StartDate": 1782855060000, "EstimatedRestoreDate": 1782871200000, "Cause": "EMERG REPAIRS", "ImpactedCustomers": 34, "County": "MONTEREY", "OutageStatus": "Active", "OutageType": "Not Planned", "GlobalID": "f6ecfb31-e845-483d-b913-539c595e4156", "OutageTypeColor": "#ffaa00", "OutageStatusColor": null, "IncidentId": "294507"}}, {"type": "Feature", "id": 42271274, "geometry": {"type": "Point", "coordinates": [-119.73588, 36.3425]}, "properties": {"OBJECTID": 42271274, "UtilityCompany": "PGE", "StartDate": 1782855256000, "EstimatedRestoreDate": 1782891000000, "Cause": "EMERG REPAIRS", "ImpactedCustomers": 5, "County": "KINGS", "OutageStatus": "Active", "OutageType": "Not Planned", "GlobalID": "5357f8e1-a7fe-48a5-87c2-1645cb854498", "OutageTypeColor": "#ffaa00", "OutageStatusColor": null, "IncidentId": "294509"}}, {"type": "Feature", "id": 42271275, "geometry": {"type": "Point", "coordinates": [-121.90809, 37.25911]}, "properties": {"OBJECTID": 42271275, "UtilityCompany": "PGE", "StartDate": 1782855588000, "EstimatedRestoreDate": 1782883800000, "Cause": null, "ImpactedCustomers": 19, "County": "SANTA CLARA", "OutageStatus": "Active", "OutageType": "Not Planned", "GlobalID": "ee20f7d4-fd14-4948-9456-5b19f8e03652", "OutageTypeColor": "#ffaa00", "OutageStatusColor": null, "IncidentId": "294511"}}, {"type": "Feature", "id": 42271276, "geometry": {"type": "Point", "coordinates": [-119.74072, 36.89474]}, "properties": {"OBJECTID": 42271276, "UtilityCompany": "PGE", "StartDate": 1782856028000, "EstimatedRestoreDate": 1782869400000, "Cause": null, "ImpactedCustomers": 1, "County": "FRESNO", "OutageStatus": "Active", "OutageType": "Not Planned", "GlobalID": "8e0e95d6-6e6f-47a1-9050-b592194ffbf8", "OutageTypeColor": "#ffaa00", "OutageStatusColor": null, "IncidentId": "294514"}}, {"type": "Feature", "id": 42271277, "geometry": {"type": "Point", "coordinates": [-122.50184, 37.74573]}, "properties": {"OBJECTID": 42271277, "UtilityCompany": "PGE", "StartDate": 1782856188000, "EstimatedRestoreDate": 1782881100000, "Cause": null, "ImpactedCustomers": 1, "County": "SAN FRANCISCO", "OutageStatus": "Active", "OutageType": "Not Planned", "GlobalID": "0f8ad4aa-edbc-4421-aaa7-090516a6a764", "OutageTypeColor": "#ffaa00", "OutageStatusColor": null, "IncidentId": "294517"}}, {"type": "Feature", "id": 42271278, "geometry": {"type": "Point", "coordinates": [-124.15014, 40.79606]}, "properties": {"OBJECTID": 42271278, "UtilityCompany": "PGE", "StartDate": 1782856257000, "EstimatedRestoreDate": 1782870300000, "Cause": "PATROLLING", "ImpactedCustomers": 13, "County": "HUMBOLDT", "OutageStatus": "Active", "OutageType": "Not Planned", "GlobalID": "a37aa989-3b07-4825-bd37-a6ad8b408695", "OutageTypeColor": "#ffaa00", "OutageStatusColor": null, "IncidentId": "294519"}}, {"type": "Feature", "id": 42271279, "geometry": {"type": "Point", "coordinates": [-122.506, 37.76004]}, "properties": {"OBJECTID": 42271279, "UtilityCompany": "PGE", "StartDate": 1782856252000, "EstimatedRestoreDate": 1782871200000, "Cause": null, "ImpactedCustomers": 40, "County": "SAN FRANCISCO", "OutageStatus": "Active", "OutageType": "Not Planned", "GlobalID": "e9619148-a4a3-401e-98de-7860821f6354", "OutageTypeColor": "#ffaa00", "OutageStatusColor": null, "IncidentId": "294520"}}, {"type": "Feature", "id": 42271280, "geometry": {"type": "Point", "coordinates": [-121.81362, 38.7352]}, "properties": {"OBJECTID": 42271280, "UtilityCompany": "PGE", "StartDate": 1782856523000, "EstimatedRestoreDate": 1782884700000, "Cause": null, "ImpactedCustomers": 1, "County": "YOLO", "OutageStatus": "Active", "OutageType": "Not Planned", "GlobalID": "9fd3ee48-fd17-4519-be03-e115a5d0f1b0", "OutageTypeColor": "#ffaa00", "OutageStatusColor": null, "IncidentId": "294521"}}, {"type": "Feature", "id": 42271281, "geometry": {"type": "Point", "coordinates": [-120.43754, 34.95137]}, "properties": {"OBJECTID": 42271281, "UtilityCompany": "PGE", "StartDate": 1782856582000, "EstimatedRestoreDate": 1782877500000, "Cause": "PATROLLING", "ImpactedCustomers": 1, "County": "SANTA BARBARA", "OutageStatus": "Active", "OutageType": "Not Planned", "GlobalID": "b006fcc3-7fd2-48cd-8414-3a5c6df07458", "OutageTypeColor": "#ffaa00", "OutageStatusColor": null, "IncidentId": "294522"}}, {"type": "Feature", "id": 42271282, "geometry": {"type": "Point", "coordinates": [-122.49325, 37.78021]}, "properties": {"OBJECTID": 42271282, "UtilityCompany": "PGE", "StartDate": 1782856677000, "EstimatedRestoreDate": 1782878400000, "Cause": "PATROLLING", "ImpactedCustomers": 77, "County": "SAN FRANCISCO", "OutageStatus": "Active", "OutageType": "Not Planned", "GlobalID": "0e9dcc30-3752-4546-8fa8-35604c40ebef", "OutageTypeColor": "#ffaa00", "OutageStatusColor": null, "IncidentId": "294524"}}, {"type": "Feature", "id": 42271283, "geometry": {"type": "Point", "coordinates": [-119.3495, 36.64252]}, "properties": {"OBJECTID": 42271283, "UtilityCompany": "PGE", "StartDate": 1782856821000, "EstimatedRestoreDate": 1782871200000, "Cause": null, "ImpactedCustomers": 1, "County": "FRESNO", "OutageStatus": "Active", "OutageType": "Not Planned", "GlobalID": "e51995b4-b829-4c79-b1bc-c38d21811d17", "OutageTypeColor": "#ffaa00", "OutageStatusColor": null, "IncidentId": "294525"}}, {"type": "Feature", "id": 42271284, "geometry": {"type": "Point", "coordinates": [-122.85693, 39.12517]}, "properties": {"OBJECTID": 42271284, "UtilityCompany": "PGE", "StartDate": 1782856900000, "EstimatedRestoreDate": 1782883800000, "Cause": "PATROLLING", "ImpactedCustomers": 1, "County": "LAKE", "OutageStatus": "Active", "OutageType": "Not Planned", "GlobalID": "67f6f252-b1b2-498f-98a3-d403220be934", "OutageTypeColor": "#ffaa00", "OutageStatusColor": null, "IncidentId": "294526"}}, {"type": "Feature", "id": 42271285, "geometry": {"type": "Point", "coordinates": [-119.62786, 36.43431]}, "properties": {"OBJECTID": 42271285, "UtilityCompany": "PGE", "StartDate": 1782856946000, "EstimatedRestoreDate": 1782891900000, "Cause": null, "ImpactedCustomers": 1, "County": "KINGS", "OutageStatus": "Active", "OutageType": "Not Planned", "GlobalID": "d7a206de-58e0-4694-8005-d1223a6aceb2", "OutageTypeColor": "#ffaa00", "OutageStatusColor": null, "IncidentId": "294528"}}, {"type": "Feature", "id": 42271286, "geometry": {"type": "Point", "coordinates": [-122.28658, 37.89071]}, "properties": {"OBJECTID": 42271286, "UtilityCompany": "PGE", "StartDate": 1782856947000, "EstimatedRestoreDate": 1782871200000, "Cause": null, "ImpactedCustomers": 1, "County": "ALAMEDA", "OutageStatus": "Active", "OutageType": "Not Planned", "GlobalID": "42cf0f85-2542-415b-93e0-66399ccc1888", "OutageTypeColor": "#ffaa00", "OutageStatusColor": null, "IncidentId": "294529"}}, {"type": "Feature", "id": 42271287, "geometry": {"type": "Point", "coordinates": [-123.14681, 38.48289]}, "properties": {"OBJECTID": 42271287, "UtilityCompany": "PGE", "StartDate": 1782853980000, "EstimatedRestoreDate": 1782888300000, "Cause": null, "ImpactedCustomers": 40, "County": "SONOMA", "OutageStatus": "Active", "OutageType": "Not Planned", "GlobalID": "f9c18d32-e35c-4f2a-95b4-fff14c43fb7d", "OutageTypeColor": "#ffaa00", "OutageStatusColor": null, "IncidentId": "294530"}}, {"type": "Feature", "id": 42271288, "geometry": {"type": "Point", "coordinates": [-120.61277, 34.96367]}, "properties": {"OBJECTID": 42271288, "UtilityCompany": "PGE", "StartDate": 1782857010000, "EstimatedRestoreDate": 1782878400000, "Cause": null, "ImpactedCustomers": 1, "County": "SANTA BARBARA", "OutageStatus": "Active", "OutageType": "Not Planned", "GlobalID": "30ba73ac-0c85-4b03-ab32-c978d7c17f0e", "OutageTypeColor": "#ffaa00", "OutageStatusColor": null, "IncidentId": "294531"}}, {"type": "Feature", "id": 42271289, "geometry": {"type": "Point", "coordinates": [-122.56886, 37.90392]}, "properties": {"OBJECTID": 42271289, "UtilityCompany": "PGE", "StartDate": 1782857132000, "EstimatedRestoreDate": 1782880200000, "Cause": null, "ImpactedCustomers": 1, "County": "MARIN", "OutageStatus": "Active", "OutageType": "Not Planned", "GlobalID": "627d1e61-474e-4559-ab6c-7c6ce116598f", "OutageTypeColor": "#ffaa00", "OutageStatusColor": null, "IncidentId": "294532"}}, {"type": "Feature", "id": 42271290, "geometry": {"type": "Point", "coordinates": [-119.85446, 36.83418]}, "properties": {"OBJECTID": 42271290, "UtilityCompany": "PGE", "StartDate": 1782857163000, "EstimatedRestoreDate": 1782884700000, "Cause": "PATROLLING", "ImpactedCustomers": 38, "County": "FRESNO", "OutageStatus": "Active", "OutageType": "Not Planned", "GlobalID": "994a2514-aa29-4862-bde1-8cbb27539e87", "OutageTypeColor": "#ffaa00", "OutageStatusColor": null, "IncidentId": "294533"}}, {"type": "Feature", "id": 42271291, "geometry": {"type": "Point", "coordinates": [-121.23421, 37.66481]}, "properties": {"OBJECTID": 42271291, "UtilityCompany": "PGE", "StartDate": 1782857235000, "EstimatedRestoreDate": 1782873000000, "Cause": null, "ImpactedCustomers": 1, "County": "SAN JOAQUIN", "OutageStatus": "Active", "OutageType": "Not Planned", "GlobalID": "445e3aa1-0d35-46d6-8819-4fee02be21a3", "OutageTypeColor": "#ffaa00", "OutageStatusColor": null, "IncidentId": "294535"}}, {"type": "Feature", "id": 42271292, "geometry": {"type": "Point", "coordinates": [-122.76014, 39.00002]}, "properties": {"OBJECTID": 42271292, "UtilityCompany": "PGE", "StartDate": 1782857524000, "EstimatedRestoreDate": 1782870300000, "Cause": null, "ImpactedCustomers": 1, "County": "LAKE", "OutageStatus": "Active", "OutageType": "Not Planned", "GlobalID": "fad7f35e-7522-41f1-a0b5-18f99451075b", "OutageTypeColor": "#ffaa00", "OutageStatusColor": null, "IncidentId": "294541"}}, {"type": "Feature", "id": 42271293, "geometry": {"type": "Point", "coordinates": [-121.98453, 39.16942]}, "properties": {"OBJECTID": 42271293, "UtilityCompany": "PGE", "StartDate": 1782857504000, "EstimatedRestoreDate": 1782893700000, "Cause": null, "ImpactedCustomers": 4, "County": "COLUSA", "OutageStatus": "Active", "OutageType": "Not Planned", "GlobalID": "b86a554a-758e-4f3b-92e5-2c6ee764bea6", "OutageTypeColor": "#ffaa00", "OutageStatusColor": null, "IncidentId": "294542"}}, {"type": "Feature", "id": 42271294, "geometry": {"type": "Point", "coordinates": [-121.35473, 37.88817]}, "properties": {"OBJECTID": 42271294, "UtilityCompany": "PGE", "StartDate": 1782857558000, "EstimatedRestoreDate": 1782881100000, "Cause": null, "ImpactedCustomers": 1, "County": "SAN JOAQUIN", "OutageStatus": "Active", "OutageType": "Not Planned", "GlobalID": "b89e8b20-e768-4443-a5b2-0eb494762836", "OutageTypeColor": "#ffaa00", "OutageStatusColor": null, "IncidentId": "294543"}}, {"type": "Feature", "id": 42271295, "geometry": {"type": "Point", "coordinates": [-121.34181, 37.96483]}, "properties": {"OBJECTID": 42271295, "UtilityCompany": "PGE", "StartDate": 1782857862000, "EstimatedRestoreDate": 1782872100000, "Cause": null, "ImpactedCustomers": 1, "County": "SAN JOAQUIN", "OutageStatus": "Active", "OutageType": "Not Planned", "GlobalID": "6fa033af-5136-473d-915d-11d2a6de8a44", "OutageTypeColor": "#ffaa00", "OutageStatusColor": null, "IncidentId": "294544"}}, {"type": "Feature", "id": 42271296, "geometry": {"type": "Point", "coordinates": [-119.01611, 35.27934]}, "properties": {"OBJECTID": 42271296, "UtilityCompany": "PGE", "StartDate": 1782857979000, "EstimatedRestoreDate": 1782872100000, "Cause": null, "ImpactedCustomers": 1, "County": "KERN", "OutageStatus": "Active", "OutageType": "Not Planned", "GlobalID": "365092f2-821d-4166-b5a3-fd1bd51d0b63", "OutageTypeColor": "#ffaa00", "OutageStatusColor": null, "IncidentId": "294546"}}, {"type": "Feature", "id": 42271297, "geometry": {"type": "Point", "coordinates": [-121.95492, 38.53856]}, "properties": {"OBJECTID": 42271297, "UtilityCompany": "PGE", "StartDate": 1782858019000, "EstimatedRestoreDate": 1782875700000, "Cause": null, "ImpactedCustomers": 1, "County": "YOLO", "OutageStatus": "Active", "OutageType": "Not Planned", "GlobalID": "57e98c9c-62bc-463b-be85-8ccb3c04e3df", "OutageTypeColor": "#ffaa00", "OutageStatusColor": null, "IncidentId": "294547"}}, {"type": "Feature", "id": 42271298, "geometry": {"type": "Point", "coordinates": [-122.31819, 38.00646]}, "properties": {"OBJECTID": 42271298, "UtilityCompany": "PGE", "StartDate": 1782858040000, "EstimatedRestoreDate": 1782885600000, "Cause": null, "ImpactedCustomers": 40, "County": "CONTRA COSTA", "OutageStatus": "Active", "OutageType": "Not Planned", "GlobalID": "c78a901e-4a17-4a6e-a1ae-6799b471c915", "OutageTypeColor": "#ffaa00", "OutageStatusColor": null, "IncidentId": "294548"}}, {"type": "Feature", "id": 42271299, "geometry": {"type": "Point", "coordinates": [-121.81733, 37.02019]}, "properties": {"OBJECTID": 42271299, "UtilityCompany": "PGE", "StartDate": 1782858217000, "EstimatedRestoreDate": 1782885600000, "Cause": null, "ImpactedCustomers": 1, "County": "SANTA CRUZ", "OutageStatus": "Active", "OutageType": "Not Planned", "GlobalID": "a47783ec-5a73-4a56-b57e-00571ac8bb70", "OutageTypeColor": "#ffaa00", "OutageStatusColor": null, "IncidentId": "294549"}}, {"type": "Feature", "id": 42271300, "geometry": {"type": "Point", "coordinates": [-121.56182, 39.04147]}, "properties": {"OBJECTID": 42271300, "UtilityCompany": "PGE", "StartDate": 1782858265000, "EstimatedRestoreDate": 1782879300000, "Cause": "EMERG REPAIRS", "ImpactedCustomers": 1, "County": "YUBA", "OutageStatus": "Active", "OutageType": "Not Planned", "GlobalID": "52ee3feb-c4ef-4927-a8dd-f3521e7d9eca", "OutageTypeColor": "#ffaa00", "OutageStatusColor": null, "IncidentId": "294550"}}, {"type": "Feature", "id": 42271301, "geometry": {"type": "Point", "coordinates": [-122.13287, 38.25536]}, "properties": {"OBJECTID": 42271301, "UtilityCompany": "PGE", "StartDate": 1782858334000, "EstimatedRestoreDate": 1782894600000, "Cause": null, "ImpactedCustomers": 1, "County": "SOLANO", "OutageStatus": "Active", "OutageType": "Not Planned", "GlobalID": "89faf3ae-f2a7-4c24-9a1b-0607875e6352", "OutageTypeColor": "#ffaa00", "OutageStatusColor": null, "IncidentId": "294551"}}, {"type": "Feature", "id": 42271302, "geometry": {"type": "Point", "coordinates": [-121.9483, 37.5242]}, "properties": {"OBJECTID": 42271302, "UtilityCompany": "PGE", "StartDate": 1782858567000, "EstimatedRestoreDate": 1782885600000, "Cause": null, "ImpactedCustomers": 1, "County": "ALAMEDA", "OutageStatus": "Active", "OutageType": "Not Planned", "GlobalID": "2ae4dd7c-8988-414b-b207-a20ad6f6e094", "OutageTypeColor": "#ffaa00", "OutageStatusColor": null, "IncidentId": "294552"}}, {"type": "Feature", "id": 42271303, "geometry": {"type": "Point", "coordinates": [-122.50486, 40.51774]}, "properties": {"OBJECTID": 42271303, "UtilityCompany": "PGE", "StartDate": 1782858600000, "EstimatedRestoreDate": 1782871200000, "Cause": null, "ImpactedCustomers": 1, "County": "SHASTA", "OutageStatus": "Active", "OutageType": "Not Planned", "GlobalID": "87637428-37a6-4128-9201-3758e1ddea7b", "OutageTypeColor": "#ffaa00", "OutageStatusColor": null, "IncidentId": "294553"}}, {"type": "Feature", "id": 42271304, "geometry": {"type": "Point", "coordinates": [-122.2629, 38.12087]}, "properties": {"OBJECTID": 42271304, "UtilityCompany": "PGE", "StartDate": 1782858604000, "EstimatedRestoreDate": 1782871200000, "Cause": null, "ImpactedCustomers": 1, "County": "SOLANO", "OutageStatus": "Active", "OutageType": "Not Planned", "GlobalID": "9e1f34cd-5dd2-46b5-bbe4-c5868ee882ec", "OutageTypeColor": "#ffaa00", "OutageStatusColor": null, "IncidentId": "294554"}}, {"type": "Feature", "id": 42271305, "geometry": {"type": "Point", "coordinates": [-122.54493, 37.98508]}, "properties": {"OBJECTID": 42271305, "UtilityCompany": "PGE", "StartDate": 1782858844000, "EstimatedRestoreDate": null, "Cause": null, "ImpactedCustomers": 1, "County": "MARIN", "OutageStatus": "Active", "OutageType": "Not Planned", "GlobalID": "f3a9497b-023b-4e0e-9f86-d35289496ee1", "OutageTypeColor": "#ffaa00", "OutageStatusColor": null, "IncidentId": "294555"}}, {"type": "Feature", "id": 42271306, "geometry": {"type": "Point", "coordinates": [-122.20982, 38.09393]}, "properties": {"OBJECTID": 42271306, "UtilityCompany": "PGE", "StartDate": 1782858849000, "EstimatedRestoreDate": null, "Cause": "TREE CONTACT", "ImpactedCustomers": 11, "County": "SOLANO", "OutageStatus": "Active", "OutageType": "Not Planned", "GlobalID": "d6caf987-8950-4177-857a-bcf836b4e7eb", "OutageTypeColor": "#ffaa00", "OutageStatusColor": null, "IncidentId": "294556"}}, {"type": "Feature", "id": 42271307, "geometry": {"type": "Point", "coordinates": [-121.26552, 37.93104]}, "properties": {"OBJECTID": 42271307, "UtilityCompany": "PGE", "StartDate": 1782858909000, "EstimatedRestoreDate": null, "Cause": null, "ImpactedCustomers": 1, "County": "SAN JOAQUIN", "OutageStatus": "Active", "OutageType": "Not Planned", "GlobalID": "ea54bacc-1b7c-4aa3-ad53-8bab01db7586", "OutageTypeColor": "#ffaa00", "OutageStatusColor": null, "IncidentId": "294557"}}, {"type": "Feature", "id": 42271308, "geometry": {"type": "Point", "coordinates": [-122.14933, 37.8491]}, "properties": {"OBJECTID": 42271308, "UtilityCompany": "PGE", "StartDate": 1782858921000, "EstimatedRestoreDate": null, "Cause": null, "ImpactedCustomers": 1, "County": "CONTRA COSTA", "OutageStatus": "Active", "OutageType": "Not Planned", "GlobalID": "8e205133-a581-4e44-9605-66adec8cbf48", "OutageTypeColor": "#ffaa00", "OutageStatusColor": null, "IncidentId": "294558"}}, {"type": "Feature", "id": 42271309, "geometry": {"type": "Point", "coordinates": [-121.95341, 38.53786]}, "properties": {"OBJECTID": 42271309, "UtilityCompany": "PGE", "StartDate": 1782859004000, "EstimatedRestoreDate": null, "Cause": null, "ImpactedCustomers": 1, "County": "YOLO", "OutageStatus": "Active", "OutageType": "Not Planned", "GlobalID": "cdd6d2eb-44e0-4262-bf3a-11b5ef6ec916", "OutageTypeColor": "#ffaa00", "OutageStatusColor": null, "IncidentId": "294559"}}, {"type": "Feature", "id": 42271310, "geometry": {"type": "Point", "coordinates": [-119.02906, 35.30403]}, "properties": {"OBJECTID": 42271310, "UtilityCompany": "PGE", "StartDate": 1782859090000, "EstimatedRestoreDate": null, "Cause": null, "ImpactedCustomers": 1, "County": "KERN", "OutageStatus": "Active", "OutageType": "Not Planned", "GlobalID": "1be192e4-2bb4-4469-80ba-d65fecea6ed3", "OutageTypeColor": "#ffaa00", "OutageStatusColor": null, "IncidentId": "294560"}}, {"type": "Feature", "id": 42271311, "geometry": {"type": "Point", "coordinates": [-119.45309, 35.14161]}, "properties": {"OBJECTID": 42271311, "UtilityCompany": "PGE", "StartDate": 1782859304000, "EstimatedRestoreDate": null, "Cause": null, "ImpactedCustomers": 1, "County": "KERN", "OutageStatus": "Active", "OutageType": "Not Planned", "GlobalID": "652c362c-56c9-4439-8088-7aaebfcff478", "OutageTypeColor": "#ffaa00", "OutageStatusColor": null, "IncidentId": "294561"}}, {"type": "Feature", "id": 42271312, "geometry": {"type": "Point", "coordinates": [-121.43958, 36.51948]}, "properties": {"OBJECTID": 42271312, "UtilityCompany": "PGE", "StartDate": 1782859454000, "EstimatedRestoreDate": null, "Cause": null, "ImpactedCustomers": 13, "County": "MONTEREY", "OutageStatus": "Active", "OutageType": "Not Planned", "GlobalID": "c4090b72-aa55-4156-a0c0-69efb26a8674", "OutageTypeColor": "#ffaa00", "OutageStatusColor": null, "IncidentId": "294562"}}, {"type": "Feature", "id": 42271313, "geometry": {"type": "Point", "coordinates": [-121.74837, 36.76205]}, "properties": {"OBJECTID": 42271313, "UtilityCompany": "PGE", "StartDate": 1782859455000, "EstimatedRestoreDate": null, "Cause": null, "ImpactedCustomers": 1, "County": "MONTEREY", "OutageStatus": "Active", "OutageType": "Not Planned", "GlobalID": "664f081d-5a77-4528-963c-9c5a4cf1b456", "OutageTypeColor": "#ffaa00", "OutageStatusColor": null, "IncidentId": "294564"}}, {"type": "Feature", "id": 42271314, "geometry": {"type": "Point", "coordinates": [-121.93583, 36.49893]}, "properties": {"OBJECTID": 42271314, "UtilityCompany": "PGE", "StartDate": 1782859577000, "EstimatedRestoreDate": null, "Cause": null, "ImpactedCustomers": 1, "County": null, "OutageStatus": "Active", "OutageType": "Not Planned", "GlobalID": "23b7af31-cb36-44c7-9db9-da45e33bbc75", "OutageTypeColor": "#ffaa00", "OutageStatusColor": null, "IncidentId": "294567"}}, {"type": "Feature", "id": 42271315, "geometry": {"type": "Point", "coordinates": [-121.43526, 36.51511]}, "properties": {"OBJECTID": 42271315, "UtilityCompany": "PGE", "StartDate": 1782859440000, "EstimatedRestoreDate": null, "Cause": null, "ImpactedCustomers": 596, "County": "MONTEREY", "OutageStatus": "Active", "OutageType": "Not Planned", "GlobalID": "084b97a0-be12-4286-b6ce-3f7a1959ea72", "OutageTypeColor": "#ffaa00", "OutageStatusColor": null, "IncidentId": "294568"}}, {"type": "Feature", "id": 42271316, "geometry": {"type": "Point", "coordinates": [-122.29174, 40.46749]}, "properties": {"OBJECTID": 42271316, "UtilityCompany": "PGE", "StartDate": 1782859625000, "EstimatedRestoreDate": null, "Cause": null, "ImpactedCustomers": 1, "County": "SHASTA", "OutageStatus": "Active", "OutageType": "Not Planned", "GlobalID": "2a639918-ec2f-41a9-80b1-627eb50d727a", "OutageTypeColor": "#ffaa00", "OutageStatusColor": null, "IncidentId": "294569"}}]}