{"type": "FeatureCollection", "crs": {"type": "name", "properties": {"name": "EPSG:4326"}}, "features": [{"type": "Feature", "geometry": {"type": "Polygon", "coordinates": [[[-117.300334138265, 33.5311574249135], [-117.300386010557, 33.5312579474698], [-117.300492010658, 33.5315679478134], [-117.300538011346, 33.5316979478323], [-117.300350010624, 33.5317909481697], [-117.300354011505, 33.5319329477984], [-117.300381011462, 33.5320559478677], [-117.300472010474, 33.532178947813], [-117.300548011493, 33.5322639477103], [-117.30065201051, 33.5323319480829], [-117.300771010676, 33.5323469481964], [-117.300887010965, 33.5323459475738], [-117.301300010532, 33.5324569474729], [-117.301438011505, 33.5327429483107], [-117.301524011102, 33.5328029481097], [-117.301670011249, 33.5328489476749], [-117.301744011353, 33.5328829479126], [-117.30186701057, 33.532982947441], [-117.301961010556, 33.5331259479316], [-117.302034011493, 33.5332909477457], [-117.301907011118, 33.5334219480529], [-117.301944010619, 33.533439947472], [-117.30202001118, 33.5338059479636], [-117.302174010877, 33.5340159480074], [-117.302304011118, 33.5341999480415], [-117.302332010836, 33.5342799480748], [-117.302422011213, 33.5343429481888], [-117.302417010999, 33.5345119480473], [-117.302406010807, 33.5346169480772], [-117.302399010995, 33.5347319482365], [-117.302328010507, 33.534804948159], [-117.302268011175, 33.5348629478305], [-117.302173011386, 33.5348499479762], [-117.302075010819, 33.5349189476143], [-117.301829010923, 33.5349129477929], [-117.301633011191, 33.534939948218], [-117.301579010723, 33.535021947505], [-117.30149001082, 33.5351339480289], [-117.301408010763, 33.5352299479025], [-117.301278011233, 33.5353239476107], [-117.301164011421, 33.535452947432], [-117.301067011285, 33.5355139480044], [-117.300733010805, 33.5355209478335], [-117.300604010667, 33.5354369480481], [-117.300572010733, 33.5353839474534], [-117.300573011082, 33.5353689482153], [-117.300467011468, 33.5352859477464], [-117.300128011158, 33.5350529477625], [-117.2999360108, 33.5348189478143], [-117.299861011447, 33.5346929476759], [-117.299776011463, 33.5345049478302], [-117.299843011518, 33.5343679481714], [-117.299829010643, 33.5342719481657], [-117.299685011458, 33.5341729481113], [-117.299521011069, 33.534121947823], [-117.299378010906, 33.5341329474839], [-117.299184011294, 33.5341659480259], [-117.298972011377, 33.5342039479649], [-117.298769011098, 33.5342949481861], [-117.298603010672, 33.5344819477944], [-117.298339011366, 33.5345519480237], [-117.298257010627, 33.5346219478667], [-117.298139011015, 33.5347379474623], [-117.298068010637, 33.5348079477554], [-117.297837010598, 33.5348979477224], [-117.297770010763, 33.5350159475058], [-117.29769301125, 33.5356199475448], [-117.297588011514, 33.535851948296], [-117.297585011131, 33.5359469476331], [-117.297549011083, 33.5359849478237], [-117.297325011161, 33.536045947482], [-117.297207011491, 33.5361669475148], [-117.297185011046, 33.5363149480318], [-117.297146010746, 33.5364529478646], [-117.29701201071, 33.5365449476484], [-117.296436011488, 33.5367409480291], [-117.296314011034, 33.5368049478006], [-117.295907010984, 33.5370289474196], [-117.295879011294, 33.5370309481112], [-117.295454010673, 33.5366319474504], [-117.295436011246, 33.5365569477135], [-117.295394010813, 33.5363919476946], [-117.295278010469, 33.5362719476885], [-117.29530101084, 33.5361009479599], [-117.295310010981, 33.5360269481219], [-117.295294011083, 33.5357049476185], [-117.295292010831, 33.5356399475604], [-117.295294010712, 33.5356389479351], [-117.29562001117, 33.5355899480421], [-117.295772010548, 33.5354979482544], [-117.295991011231, 33.5353979474639], [-117.296242011502, 33.5352229479158], [-117.296388011489, 33.5349639475318], [-117.296193010464, 33.5349969475936], [-117.296181010885, 33.5348439478194], [-117.296090011052, 33.5346799481818], [-117.296074010519, 33.5346599476892], [-117.296020011074, 33.5347399476397], [-117.295839011252, 33.5348689475854], [-117.295671010996, 33.5349319481081], [-117.295467010971, 33.5349129482283], [-117.295357010727, 33.5348009478216], [-117.295264011157, 33.5346739478508], [-117.295239011391, 33.5345779482829], [-117.295226010811, 33.5344439477752], [-117.295249011063, 33.5342679475655], [-117.295201011413, 33.5340089481759], [-117.295161011068, 33.5338599475389], [-117.295154010979, 33.5337209475974], [-117.295257011331, 33.5335329482785], [-117.295306011282, 33.5334529479391], [-117.295263011369, 33.5331939474404], [-117.295218011319, 33.5330159482152], [-117.295202010653, 33.5328249476066], [-117.295285011456, 33.5327219475217], [-117.295436011281, 33.5326439479539], [-117.295469010553, 33.5325059475554], [-117.295492011317, 33.5323449476755], [-117.295496011208, 33.532205947632], [-117.295514011188, 33.5320059482746], [-117.295494010796, 33.5317619474621], [-117.295516011514, 33.5316239480188], [-117.295571010851, 33.5315299475092], [-117.295589011192, 33.5314779482768], [-117.295720010835, 33.531260947841], [-117.295694011081, 33.5312459481543], [-117.295697011253, 33.5311509478836], [-117.295666011149, 33.5310549482402], [-117.295650010583, 33.530867947806], [-117.295657011334, 33.5306769482038], [-117.295672010858, 33.5305679479795], [-117.295728011179, 33.5304069476946], [-117.295751011271, 33.5300679475656], [-117.295742010451, 33.5299959478555], [-117.29574701095, 33.5298479474482], [-117.295765010845, 33.5296719481357], [-117.295776011012, 33.5295239478236], [-117.295781011155, 33.5293619481411], [-117.295804011171, 33.5291859476921], [-117.295818011428, 33.5291049474385], [-117.295834011308, 33.5289669477842], [-117.295842010772, 33.5287379481106], [-117.295835010819, 33.528627947797], [-117.295941010789, 33.5285209480254], [-117.295972011431, 33.5284399477128], [-117.295957010766, 33.52837294745], [-117.295937011327, 33.5281239479223], [-117.295933011067, 33.5280719479637], [-117.295925010887, 33.5279759474963], [-117.295946010917, 33.5278519477514], [-117.296063011512, 33.5277739474429], [-117.296128010744, 33.5276939481574], [-117.29614901127, 33.5275989480793], [-117.296164011488, 33.5274759475734], [-117.29620201128, 33.5273569481617], [-117.296301010492, 33.527316947712], [-117.296321010633, 33.5272119481963], [-117.296358011451, 33.5271269476712], [-117.296474011019, 33.5270769479019], [-117.296534010946, 33.5269829475654], [-117.296526011292, 33.5268869480224], [-117.296580011499, 33.5267929475935], [-117.296644010496, 33.526755947599], [-117.296681011073, 33.5266899475924], [-117.296796011268, 33.5266499481037], [-117.29693301059, 33.5264769482592], [-117.297035010551, 33.5263949476299], [-117.297038011319, 33.5261569474304], [-117.297015010653, 33.5260999475107], [-117.297018011502, 33.5260169476671], [-117.297078010789, 33.5258579475424], [-117.297089011361, 33.5257319475601], [-117.297090011323, 33.5257179476942], [-117.297115010655, 33.5255809481382], [-117.297137011386, 33.5255499474196], [-117.297193011427, 33.5255319480075], [-117.297198010624, 33.5254989478438], [-117.297266010969, 33.5253869474285], [-117.297509011395, 33.5251759482872], [-117.297576010556, 33.5251189478245], [-117.297596011054, 33.5247879474387], [-117.297743011362, 33.5244009477779], [-117.297638011088, 33.5241519479287], [-117.297638010758, 33.5240009476986], [-117.29771701066, 33.5238439481025], [-117.297857010655, 33.5237649482427], [-117.298089010739, 33.5236699480179], [-117.298379011456, 33.5236769479768], [-117.298502010815, 33.5236869474617], [-117.298603011413, 33.523831947963], [-117.29882701116, 33.5241939475647], [-117.299079011141, 33.524296948044], [-117.29912001096, 33.5239379477397], [-117.299250011419, 33.5238359480052], [-117.299314010515, 33.5238249482397], [-117.299593011487, 33.5238519475753], [-117.29965501148, 33.5238639478622], [-117.300215011005, 33.5239149477334], [-117.300194010977, 33.524050947894], [-117.300034010491, 33.5241249478762], [-117.299950011159, 33.5242229478009], [-117.299856010548, 33.5243649476902], [-117.299873011292, 33.5244619480744], [-117.299929011481, 33.5246159478949], [-117.300058010675, 33.524688947417], [-117.300130010737, 33.5247269482994], [-117.300268010518, 33.5247309477407], [-117.300367011197, 33.5247189479913], [-117.300414010689, 33.524744947463], [-117.300525010574, 33.5248859480844], [-117.300572011088, 33.5249299478443], [-117.300573011352, 33.5250469481527], [-117.300700010733, 33.5251709475832], [-117.300642011382, 33.5253699481885], [-117.300604011093, 33.525385948229], [-117.300620010761, 33.5255179477432], [-117.300835010843, 33.5255229475168], [-117.301043011013, 33.5255599482164], [-117.301118011409, 33.5256529479528], [-117.301182011001, 33.5259729481716], [-117.301107011234, 33.5260629482613], [-117.30100201144, 33.5262439474576], [-117.300762010559, 33.5264929482507], [-117.300841010815, 33.5265659474618], [-117.301012011001, 33.5267569479236], [-117.301148011101, 33.5269719477184], [-117.301214011483, 33.5270449476239], [-117.301315011455, 33.5271879479769], [-117.301248010518, 33.5272519478229], [-117.301168011257, 33.527298947596], [-117.3011080105, 33.5273689481974], [-117.301023010905, 33.5275449479161], [-117.301001010778, 33.5275839478601], [-117.300918011386, 33.5277169481847], [-117.300856010614, 33.5280389474962], [-117.300804010708, 33.5282529474815], [-117.30078701118, 33.5284529479651], [-117.300761010527, 33.528601947535], [-117.300728011099, 33.5287899475398], [-117.300616011164, 33.5288619474993], [-117.300593010613, 33.5288799477419], [-117.300716011195, 33.5289649480631], [-117.300765010621, 33.5290179479909], [-117.300766010988, 33.5292689482387], [-117.300517010646, 33.529512948226], [-117.300237011137, 33.5296149476325], [-117.300166010509, 33.5298449480632], [-117.300195010642, 33.5300499483133], [-117.300230010473, 33.530100947561], [-117.300475010985, 33.5301909476867], [-117.300578010801, 33.5302569482339], [-117.300690011469, 33.5304559482141], [-117.300465010465, 33.5306359474293], [-117.300395011303, 33.5306529477254], [-117.300241010617, 33.5308229474944], [-117.300334138265, 33.5311574249135]]]}, "properties": {"poly_IncidentName": "Volcano", "poly_GISAcres": 143.62628571278162, "poly_DateCurrent": 1783621094000, "attr_IncidentName": "VOLCANO", "attr_PercentContained": null, "attr_FireDiscoveryDateTime": 1783461122000, "attr_FireCause": "Undetermined", "attr_IncidentTypeCategory": "WF", "attr_POOCounty": "Riverside"}}, {"type": "Feature", "geometry": {"type": "MultiPolygon", "coordinates": [[[[-123.687474670267, 41.1219276709814], [-123.687052937292, 41.1221434333091], [-123.686378712145, 41.122417125759], [-123.686331414947, 41.122210244778], [-123.686268468199, 41.1220560700885], [-123.686266219715, 41.1218049641309], [-123.68626696891, 41.1216323771202], [-123.686162663726, 41.1214516020649], [-123.68606450212, 41.1212350260772], [-123.686027787974, 41.121047256021], [-123.68588999719, 41.1211498149687], [-123.685449106743, 41.1211951822271], [-123.685358967093, 41.1213260582005], [-123.685323375841, 41.1213912768331], [-123.685195292251, 41.1214917381006], [-123.685071880799, 41.1215980270829], [-123.684934365797, 41.1216137356631], [-123.684836742282, 41.1216714208288], [-123.6848180169, 41.1217652207804], [-123.684758069626, 41.1219088881754], [-123.684749169118, 41.1220305459306], [-123.68441488534, 41.1221938921139], [-123.683906694909, 41.1225858189775], [-123.683500599806, 41.1224794050509], [-123.683554815829, 41.1221958430651], [-123.683519215594, 41.1221299850651], [-123.683477197795, 41.1218952409301], [-123.683546712127, 41.1218307252259], [-123.68379404707, 41.1216929660489], [-123.683986849785, 41.1216157150535], [-123.684134225594, 41.1216002967845], [-123.684292294948, 41.1216156961056], [-123.684428941279, 41.1215770638066], [-123.684544025348, 41.1214812889286], [-123.684658978264, 41.1212540601386], [-123.684668106944, 41.1211720181312], [-123.684691552074, 41.1209890810373], [-123.684684941372, 41.1209381293295], [-123.684678543571, 41.1209161060959], [-123.684742784791, 41.1208388379448], [-123.684719099811, 41.1207488168474], [-123.684675030259, 41.120662012775], [-123.684705623285, 41.1206061958368], [-123.684760866081, 41.1205302997209], [-123.684736558568, 41.1203913839943], [-123.684753861019, 41.1203397970517], [-123.684769137769, 41.1202537801506], [-123.684769931879, 41.1201157956961], [-123.684791701652, 41.1200610488813], [-123.684904727681, 41.1199976567784], [-123.685034270135, 41.1199717217205], [-123.685190516807, 41.1199331249974], [-123.685292931936, 41.1198954107107], [-123.685387768877, 41.1197922238242], [-123.685377791289, 41.1197286352088], [-123.685346285576, 41.1196202642682], [-123.685268054891, 41.1195306150578], [-123.685252876058, 41.1193973100768], [-123.6852879391, 41.1193083609862], [-123.68519221103, 41.1192481190535], [-123.685126310621, 41.119168849849], [-123.685100416682, 41.1191104999548], [-123.685100320563, 41.1190257422118], [-123.685112808942, 41.1189448999899], [-123.685073122271, 41.1188710761701], [-123.685065094027, 41.1188018277317], [-123.684969763911, 41.1188083982359], [-123.684838170603, 41.1187770007079], [-123.684602207433, 41.1186740401262], [-123.684469031293, 41.1186859447466], [-123.684218755265, 41.1185984429279], [-123.684086576256, 41.1185290351664], [-123.683977879208, 41.1184995912729], [-123.683848209194, 41.1184342797595], [-123.683718400839, 41.1183487489733], [-123.683618591722, 41.1182450778097], [-123.683471344373, 41.1181210450869], [-123.683349197748, 41.1180333861855], [-123.683273049358, 41.1179481912229], [-123.683150548798, 41.1178956562593], [-123.683151085991, 41.1178558069983], [-123.682987158723, 41.1178282509457], [-123.682762604156, 41.1177843201394], [-123.682655225835, 41.1177290482485], [-123.682412327671, 41.1177633712104], [-123.682277065643, 41.1176952132092], [-123.682194832066, 41.1176130388464], [-123.681963392811, 41.1175598410699], [-123.681814094607, 41.1175031139623], [-123.681525403024, 41.1174017552992], [-123.681308390713, 41.1173249262878], [-123.681158193296, 41.1171215152513], [-123.680963001063, 41.1169013767053], [-123.680894626693, 41.1167757280366], [-123.680859252834, 41.1165688969496], [-123.680801766944, 41.1163600843085], [-123.680844498005, 41.1161980311265], [-123.680853270952, 41.1161320642388], [-123.680909404878, 41.1160869628358], [-123.680963028012, 41.1160585140551], [-123.681121835781, 41.1159906101038], [-123.681291279603, 41.1159576620946], [-123.681561385043, 41.1158929050366], [-123.68193794264, 41.1156489060135], [-123.682082347721, 41.115593348755], [-123.682416128443, 41.1154823369673], [-123.682618341908, 41.11536742133], [-123.682903730386, 41.1152906278373], [-123.683270033714, 41.1154165960811], [-123.683391936895, 41.1155237022973], [-123.683605071179, 41.1153544962015], [-123.683408622203, 41.1152526801009], [-123.683195745735, 41.1151335720771], [-123.68305488361, 41.1149927072988], [-123.683033439028, 41.1148964497408], [-123.683071400933, 41.1146652328626], [-123.683360036821, 41.1145567750548], [-123.683572896221, 41.1145630637635], [-123.683985547228, 41.1145769250447], [-123.684191041341, 41.1143319661797], [-123.684680020401, 41.1144583457201], [-123.684966355703, 41.1145061547173], [-123.685156902748, 41.1145876697182], [-123.685162439065, 41.1145907037549], [-123.685396976609, 41.1147192268547], [-123.685612327037, 41.1147254999818], [-123.686161140183, 41.114614846777], [-123.68636227567, 41.1146256841641], [-123.686600657106, 41.1146614029286], [-123.686913339995, 41.114802170284], [-123.687339056998, 41.1148687828068], [-123.687852973291, 41.11477722331], [-123.688032121613, 41.1149678686825], [-123.688251861209, 41.1156356411986], [-123.688284842855, 41.1158465419623], [-123.688284767397, 41.1161269397269], [-123.688247380413, 41.116331856273], [-123.688254689106, 41.1165427737492], [-123.688260153558, 41.1167030807024], [-123.688426042746, 41.1168582743142], [-123.688486555061, 41.1170132597931], [-123.688508995875, 41.1173092518726], [-123.688415750748, 41.117636097271], [-123.688433546374, 41.117915296983], [-123.68844823293, 41.1180606558862], [-123.688466048319, 41.1183095307172], [-123.688362448312, 41.1185192257251], [-123.688325712607, 41.1186261407737], [-123.688336492391, 41.1189423229554], [-123.688588238062, 41.1192611726725], [-123.688831703962, 41.1193725171151], [-123.688873931967, 41.1194873452092], [-123.688903703034, 41.119641919116], [-123.688875124032, 41.1197966097338], [-123.688926207629, 41.1199011108276], [-123.688757038691, 41.1201259737166], [-123.688451103946, 41.1202568633266], [-123.688258976765, 41.1203688117512], [-123.688247757705, 41.1204989767798], [-123.688211403784, 41.1206816540243], [-123.688195454196, 41.1206980970695], [-123.688064380115, 41.1208332197928], [-123.687941653179, 41.1210177922788], [-123.687861348284, 41.1211367901476], [-123.687811569041, 41.1212248313106], [-123.687736465392, 41.1213190047719], [-123.687653234684, 41.1214553781422], [-123.687590905078, 41.1216415817903], [-123.687474670267, 41.1219276709814]]], [[[-123.681170938593, 41.1130951767095], [-123.680803665084, 41.1132502421374], [-123.680300634576, 41.1132912271584], [-123.68001249366, 41.1134343127815], [-123.679901401704, 41.1135288757508], [-123.679768571416, 41.1136369291787], [-123.679718642155, 41.113591667014], [-123.679660549004, 41.1134933898655], [-123.679651304441, 41.1134846172038], [-123.6796122951, 41.1133852556622], [-123.679526038866, 41.1132041479172], [-123.679440274011, 41.1131353516952], [-123.67929828989, 41.1130284622201], [-123.679285903021, 41.1129289158974], [-123.679423892334, 41.1128863069957], [-123.679433240202, 41.1128705976804], [-123.679461919816, 41.1128557871584], [-123.679509055317, 41.1127713962893], [-123.679668057123, 41.1126263837045], [-123.679691846308, 41.1125620260611], [-123.679779186808, 41.11249367586], [-123.680021069877, 41.1124956981645], [-123.68011263156, 41.1124716152758], [-123.680186821623, 41.1124596262809], [-123.680342155607, 41.1124602299946], [-123.680510595112, 41.1124856482312], [-123.680563197761, 41.1124644932148], [-123.680676124077, 41.1124044893293], [-123.680893864023, 41.1123038002807], [-123.681213329193, 41.1123150928661], [-123.681573637165, 41.112404500835], [-123.681584310049, 41.1124255577334], [-123.681583385683, 41.1125818802215], [-123.681571636617, 41.1126793222012], [-123.681411832616, 41.1127946560724], [-123.681357692951, 41.1128004312545], [-123.681264315772, 41.1129478041474], [-123.681170938593, 41.1130951767095]]], [[[-123.684565960411, 41.113921215765], [-123.684399405571, 41.1138497956846], [-123.68463557715, 41.113678487205], [-123.684799951779, 41.1137737110517], [-123.684565960411, 41.113921215765]]], [[[-123.682586491241, 41.114893366313], [-123.682403501723, 41.1148581748897], [-123.682575329674, 41.1146976177578], [-123.682586491241, 41.114893366313]]]]}, "properties": {"poly_IncidentName": "Mile Post", "poly_GISAcres": 87, "poly_DateCurrent": 1783741723000, "attr_IncidentName": "Mile Post", "attr_PercentContained": 80, "attr_FireDiscoveryDateTime": 1783499400000, "attr_FireCause": "Undetermined", "attr_IncidentTypeCategory": "WF", "attr_POOCounty": "Humboldt"}}, {"type": "Feature", "geometry": {"type": "Polygon", "coordinates": [[[-118.694857444, 34.386533748], [-118.695002338, 34.3865395820001], [-118.695244764, 34.386191554], [-118.695277233, 34.3860698870001], [-118.69500666, 34.385893154], [-118.695417723, 34.3855308400001], [-118.695707487, 34.385328358], [-118.695665326, 34.3852252980001], [-118.695684915, 34.3850918370001], [-118.695430999, 34.3850832480001], [-118.695276046, 34.384535634], [-118.695166645, 34.3846453210001], [-118.695234324, 34.384837023], [-118.695087973, 34.3849729460001], [-118.694917088, 34.3850249050001], [-118.694837024, 34.3846961260001], [-118.694693721, 34.384185905], [-118.694594236, 34.3841892830001], [-118.694341898, 34.384237656], [-118.694304712, 34.3842110000001], [-118.695370548, 34.383589122], [-118.695359464, 34.383383806], [-118.69551425, 34.3832865480001], [-118.69582821, 34.3832577360001], [-118.695859215, 34.38325466], [-118.696127079, 34.383238733], [-118.696146773, 34.3832471630001], [-118.696210278, 34.383337683], [-118.696434198, 34.3835285490001], [-118.696589819, 34.3836672690001], [-118.696627273, 34.383688728], [-118.69692109, 34.383754745], [-118.697000285, 34.3837532840001], [-118.697069768, 34.3836603550001], [-118.697184721, 34.3836944940001], [-118.697278548, 34.38382855], [-118.697369653, 34.3839286690001], [-118.697514764, 34.384002025], [-118.697534633, 34.3840058540001], [-118.697609658, 34.384069432], [-118.697879193, 34.384066128], [-118.697933712, 34.3840710000001], [-118.69805509, 34.3840133510001], [-118.698074938, 34.384013037], [-118.698318194, 34.383958444], [-118.698349712, 34.3839150000001], [-118.698666229, 34.3838790830001], [-118.698729905, 34.3838800240001], [-118.698819088, 34.383901721], [-118.698835401, 34.3839160380001], [-118.698890559, 34.384032496], [-118.698909538, 34.384050017], [-118.69895609, 34.3839493890001], [-118.698956799, 34.383919286], [-118.699058118, 34.3839175460001], [-118.699349072, 34.384267853], [-118.699124086, 34.384427799], [-118.698878461, 34.3845390660001], [-118.698809707, 34.38471394], [-118.698775798, 34.384961359], [-118.698759577, 34.3849971440001], [-118.69853825, 34.385222524], [-118.698267359, 34.385731193], [-118.698051184, 34.3857456200001], [-118.697952701, 34.385547538], [-118.697777085, 34.3855525980001], [-118.697706544, 34.385642783], [-118.69772169, 34.3858685000001], [-118.697918847, 34.3861113990001], [-118.697902656, 34.38618805], [-118.69755571, 34.3865257900001], [-118.697427608, 34.3865634800001], [-118.697391961, 34.3865644410001], [-118.697096964, 34.386731024], [-118.696770708, 34.3868957810001], [-118.696363603, 34.3870788720001], [-118.696094731, 34.3873912770001], [-118.696064563, 34.387413216], [-118.695972667, 34.387792846], [-118.695859648, 34.387973947], [-118.69577629, 34.3878382560001], [-118.695644934, 34.3878521440001], [-118.695649081, 34.3880150960001], [-118.69535578, 34.3879860110001], [-118.69472694, 34.3874119870001], [-118.694736402, 34.38735999], [-118.694620168, 34.3873157240001], [-118.694493619, 34.387035285], [-118.694484416, 34.3870119150001], [-118.694422208, 34.3869271720001], [-118.694476503, 34.3867438840001], [-118.694506704, 34.386510027], [-118.694610052, 34.3864685520001], [-118.694687302, 34.3865168130001], [-118.694857444, 34.386533748]]]}, "properties": {"poly_IncidentName": "Grande", "poly_GISAcres": 30.32231792605865, "poly_DateCurrent": 1783645002823, "attr_IncidentName": "GRANDE", "attr_PercentContained": null, "attr_FireDiscoveryDateTime": 1783625723000, "attr_FireCause": "Undetermined", "attr_IncidentTypeCategory": "WF", "attr_POOCounty": "Los Angeles"}}, {"type": "Feature", "geometry": {"type": "MultiPolygon", "coordinates": [[[[-118.18501, 37.2457700000001], [-118.18502, 37.24575], [-118.18505, 37.2457400000001], [-118.18505, 37.2457600000001], [-118.18511, 37.2457600000001], [-118.18512, 37.24575], [-118.18514, 37.24575], [-118.18516, 37.2457400000001], [-118.18519, 37.24575], [-118.18523, 37.2457200000001], [-118.18516, 37.24569], [-118.18518, 37.2456500000001], [-118.18516, 37.24564], [-118.18517, 37.24562], [-118.18518, 37.24564], [-118.18521, 37.24566], [-118.18523, 37.2456500000001], [-118.18524, 37.2456700000001], [-118.1853, 37.2456300000001], [-118.18532, 37.24562], [-118.18536, 37.24562], [-118.18539, 37.24564], [-118.18539, 37.24566], [-118.18538, 37.2457000000001], [-118.18537, 37.24571], [-118.18535, 37.2457400000001], [-118.18534, 37.2457600000001], [-118.18538, 37.24582], [-118.18539, 37.24584], [-118.18535, 37.2458800000001], [-118.18533, 37.24589], [-118.1853, 37.2459200000001], [-118.18527, 37.24593], [-118.18525, 37.2459500000001], [-118.18523, 37.2459500000001], [-118.18521, 37.24596], [-118.18522, 37.24598], [-118.18518, 37.246], [-118.18515, 37.246], [-118.18505, 37.24609], [-118.18497, 37.2461700000001], [-118.18497, 37.2461900000001], [-118.18496, 37.2462200000001], [-118.18495, 37.2462400000001], [-118.18494, 37.24625], [-118.18492, 37.24629], [-118.18492, 37.24632], [-118.1849, 37.24634], [-118.18487, 37.2464200000001], [-118.18484, 37.24643], [-118.18482, 37.2464400000001], [-118.18479, 37.24643], [-118.18473, 37.24638], [-118.18472, 37.24632], [-118.18469, 37.2463100000001], [-118.18468, 37.24629], [-118.18461, 37.24625], [-118.1846, 37.24623], [-118.1846, 37.2462100000001], [-118.18457, 37.2462100000001], [-118.18456, 37.2461900000001], [-118.18452, 37.24618], [-118.18449, 37.24618], [-118.18446, 37.2461700000001], [-118.18443, 37.2461500000001], [-118.18419, 37.24609], [-118.18421, 37.24607], [-118.18423, 37.24607], [-118.18426, 37.2460600000001], [-118.18431, 37.2460600000001], [-118.18433, 37.24605], [-118.18436, 37.24605], [-118.18438, 37.2460600000001], [-118.1844, 37.2460300000001], [-118.18429, 37.2459900000001], [-118.18429, 37.2459700000001], [-118.18426, 37.24596], [-118.18425, 37.24596], [-118.18424, 37.2459500000001], [-118.18422, 37.2459400000001], [-118.18423, 37.2459200000001], [-118.1842, 37.2459200000001], [-118.18419, 37.24591], [-118.18419, 37.24589], [-118.18424, 37.2458600000001], [-118.18421, 37.24582], [-118.18422, 37.2457700000001], [-118.18422, 37.2457600000001], [-118.18423, 37.24575], [-118.18424, 37.2457000000001], [-118.18426, 37.24568], [-118.18428, 37.2456700000001], [-118.1843, 37.2456700000001], [-118.18429, 37.24566], [-118.18431, 37.24566], [-118.18434, 37.24569], [-118.18436, 37.2457000000001], [-118.18438, 37.24569], [-118.18439, 37.24571], [-118.18441, 37.2457000000001], [-118.18446, 37.2457000000001], [-118.1845, 37.2457400000001], [-118.18453, 37.2457400000001], [-118.18454, 37.24575], [-118.18455, 37.24575], [-118.18457, 37.2457400000001], [-118.1846, 37.2457400000001], [-118.18461, 37.2457600000001], [-118.18464, 37.2457600000001], [-118.18466, 37.2457200000001], [-118.18468, 37.24573], [-118.18469, 37.24571], [-118.18467, 37.2457000000001], [-118.18471, 37.2456500000001], [-118.18474, 37.24568], [-118.18475, 37.24566], [-118.18478, 37.24566], [-118.18479, 37.24564], [-118.18479, 37.2456700000001], [-118.18484, 37.24568], [-118.1849, 37.24571], [-118.18491, 37.24571], [-118.18494, 37.2457200000001], [-118.18498, 37.2457400000001], [-118.18498, 37.24575], [-118.18501, 37.2457700000001]]], [[[-118.18482, 37.2464400000001], [-118.18484, 37.24645], [-118.18474, 37.2465], [-118.18482, 37.2464400000001]]]]}, "properties": {"poly_IncidentName": "BATCHELDER", "poly_GISAcres": 1.2593018279645265, "poly_DateCurrent": 1783706996000, "attr_IncidentName": "BATCHELDER", "attr_PercentContained": null, "attr_FireDiscoveryDateTime": 1783650026000, "attr_FireCause": "Undetermined", "attr_IncidentTypeCategory": "WF", "attr_POOCounty": "Inyo"}}]}